"business_name","business_page","telephone","street_address","locality","region","postal_code","rank"
"The Four's Restaurant & Sports Bar","https://www.yellowpages.com/boston-ma/mip/the-fours-restaurant-sports-bar-2475158?lid=209428619","(617) 830-1204","166 Canal St","Boston","MA","02114","1"
"No Name Restaurant","https://www.yellowpages.com/boston-ma/mip/no-name-restaurant-8648730?lid=1001715956847","(617) 229-6084","15 Fish Pier St E","Boston","MA","02210","2"
"Aria Trattoria","https://www.yellowpages.com/boston-ma/mip/aria-trattoria-480202715?lid=1000380204864","(617) 580-5141","253 Hanover St","Boston","MA","02113","3"
"The Four's Restaurant & Sports Bar","https://www.yellowpages.com/boston-ma/mip/the-fours-restaurant-sports-bar-460711092?lid=1000273712008","(617) 830-4504","166 Canal St","Boston","MA","02114","4"
"B&G Oysters","https://www.yellowpages.com/boston-ma/mip/b-g-oysters-2650359?lid=2650359","(617) 423-0550","550 Tremont St","Boston","MA","02116","5"
"Morton's The Steakhouse","https://www.yellowpages.com/boston-ma/mip/mortons-the-steakhouse-22589061?lid=22589061","(617) 266-5858","699 Boylston St","Boston","MA","02116","6"
"Abe & Louie's","https://www.yellowpages.com/boston-ma/mip/abe-louies-2198151?lid=2198151","(617) 536-6300","793 Boylston St","Boston","MA","02116","7"
"The Oceanaire Seafood Room","https://www.yellowpages.com/boston-ma/mip/the-oceanaire-seafood-room-455904020?lid=455904020","(617) 742-2277","40 Court St","Boston","MA","02108","8"
"Island Creek Oyster Bar","https://www.yellowpages.com/boston-ma/mip/island-creek-oyster-bar-460080280?lid=460080280","(617) 532-5300","500 Commonwealth Ave","Boston","MA","02215","9"
"Tremont 647","https://www.yellowpages.com/boston-ma/mip/tremont-647-5731916?lid=5731916","(617) 266-4600","647 Tremont St","Boston","MA","02118","10"
"Joe's American Bar & Grill","https://www.yellowpages.com/boston-ma/mip/joes-american-bar-grill-1011023?lid=1011023","(617) 367-8700","100 Atlantic Ave","Boston","MA","02110","11"
"Fire & Ice","https://www.yellowpages.com/boston-ma/mip/fire-ice-7382808?lid=7382808","(617) 482-3473","205 Berkeley St","Boston","MA","02116","12"
"Houlihan's","https://www.yellowpages.com/boston-ma/mip/houlihans-467872658?lid=467872658","(617) 367-6377","60 State St","Boston","MA","02109","13"
"Oceana At The Marriott Long Wharf","https://www.yellowpages.com/boston-ma/mip/oceana-at-the-marriott-long-wharf-471102654?lid=471102654","(617) 227-3838","296 State St","Boston","MA","02109","14"
"Artu On Charles Street","https://www.yellowpages.com/boston-ma/mip/artu-on-charles-street-3849315?lid=3849315","(617) 227-9023","89 Charles St","Boston","MA","02114","15"
"McCormick & Schmick's Seafood & Steaks","https://www.yellowpages.com/boston-ma/mip/mccormick-schmicks-seafood-steaks-467887008?lid=467887008","(617) 720-5522","1 Faneuil Hall Market Pl","Boston","MA","02109","16"
"Flames Restaurant II Inc","https://www.yellowpages.com/boston-ma/mip/flames-restaurant-ii-inc-3289242?lid=3289242","(617) 734-1911","746 Huntington Ave","Boston","MA","02115","17"
"Citizen Public House & Oyster Bar","https://www.yellowpages.com/boston-ma/mip/citizen-public-house-oyster-bar-458900906?lid=458900906","(617) 450-9000","1310 Boylston St","Boston","MA","02215","18"
"The North Star","https://www.yellowpages.com/boston-ma/mip/the-north-star-3217193?lid=3217193","(617) 723-3222","222 Friend St","Boston","MA","02114","19"
"Atlantic Fish Co","https://www.yellowpages.com/boston-ma/mip/atlantic-fish-co-8673013?lid=8673013","(617) 267-4000","761 Boylston St","Boston","MA","02116","20"
"Top of the Hub","https://www.yellowpages.com/boston-ma/mip/top-of-the-hub-465512780?lid=465512780","(617) 536-1775","800 Boylston St Fl 52","Boston","MA","02199","21"
"Terramia Ristorante","https://www.yellowpages.com/boston-ma/mip/terramia-ristorante-13507328?lid=13507328","(617) 523-3112","98 Salem St","Boston","MA","02113","22"
"Neptune Oyster","https://www.yellowpages.com/boston-ma/mip/neptune-oyster-3678122?lid=3678122","(617) 742-3474","63 Salem St Apt 1","Boston","MA","02113","23"
"Troquet","https://www.yellowpages.com/boston-ma/mip/troquet-22611122?lid=22611122","(617) 695-9463","140 Boylston St","Boston","MA","02116","24"
"Harvard Gardens","https://www.yellowpages.com/boston-ma/mip/harvard-gardens-22868738?lid=1001876479751","(617) 765-0605","316 Cambridge St","Boston","MA","02114","25"
"21st Amendment","https://www.yellowpages.com/boston-ma/mip/21st-amendment-3466595?lid=3466595","(617) 227-7100","150 Bowdoin St","Boston","MA","02108","26"
"Woody's Grill & Tap","https://www.yellowpages.com/boston-ma/mip/woodys-grill-tap-671276?lid=671276","(617) 375-9663","58 Hemenway St","Boston","MA","02115","27"
"Blackjack Pasta Bar","https://www.yellowpages.com/boston-ma/mip/blackjack-pasta-bar-7016994?lid=7016994","(617) 266-1313","52 Queensberry St","Boston","MA","02215","28"
"Boston Chowda Co","https://www.yellowpages.com/boston-ma/mip/boston-chowda-co-4099713?lid=4099713","(617) 742-7279","1 Faneuil Hall Market Pl","Boston","MA","02109","29"
"The Daily Catch","https://www.yellowpages.com/boston-ma/mip/the-daily-catch-10766579?lid=10766579","(617) 523-8567","323 Hanover St","Boston","MA","02113","30"
"Anthony's Cafe On Waterfront","https://www.yellowpages.com/boston-ma/mip/anthonys-cafe-on-waterfront-13440808?lid=13440808","(617) 742-2987","252 Commercial St","Boston","MA","02109","31"
"Slate Bar & Grill","https://www.yellowpages.com/boston-ma/mip/slate-bar-grill-469828926?lid=469828926","(857) 263-7372","109 High St","Boston","MA","02110","32"
"Toscano Restaurant","https://www.yellowpages.com/boston-ma/mip/toscano-restaurant-19776374?lid=19776374","(617) 723-4090","47 Charles St","Boston","MA","02114","33"
"The Salty Pig","https://www.yellowpages.com/boston-ma/mip/the-salty-pig-7520061?lid=7520061","(617) 536-6200","130 Dartmouth St","Boston","MA","02116","34"
"Prezza","https://www.yellowpages.com/boston-ma/mip/prezza-3573600?lid=3573600","(617) 227-1577","24 Fleet St","Boston","MA","02113","35"
"Tantric India Bistro","https://www.yellowpages.com/boston-ma/mip/tantric-india-bistro-467152615?lid=467152615","(617) 367-8742","123 Stuart St","Boston","MA","02116","36"
"O Ya","https://www.yellowpages.com/boston-ma/mip/o-ya-2586128?lid=2586128","(617) 654-9900","9 East St","Boston","MA","02111","37"
"Ma Maison","https://www.yellowpages.com/boston-ma/mip/ma-maison-11401474?lid=11401474","(617) 725-8855","272 Cambridge St","Boston","MA","02114","38"
"Pagliuca's Restaurant Inc","https://www.yellowpages.com/boston-ma/mip/pagliucas-restaurant-inc-3748766?lid=3748766","(617) 367-1504","14 Parmenter St","Boston","MA","02113","39"
"Storyville","https://www.yellowpages.com/boston-ma/mip/storyville-466910206?lid=466910206","(617) 236-1134","90 Exeter St","Boston","MA","02116","40"
"Mediterranean Grill","https://www.yellowpages.com/boston-ma/mip/mediterranean-grill-10719235?lid=10719235","(617) 338-4507","281 Franklin St","Boston","MA","02110","41"
"Assaggio","https://www.yellowpages.com/boston-ma/mip/assaggio-5188078?lid=5188078","(617) 227-7380","29 Prince St","Boston","MA","02113","42"
"Barking Crab","https://www.yellowpages.com/boston-ma/mip/barking-crab-9021590?lid=9021590","(617) 426-2722","88 Sleeper St","Boston","MA","02210","43"
"Dino's Cafe","https://www.yellowpages.com/boston-ma/mip/dinos-cafe-5835603?lid=5835603","(617) 227-1991","141 Salem St","Boston","MA","02113","44"
"Volle Nolle","https://www.yellowpages.com/boston-ma/mip/volle-nolle-6188138?lid=6188138","(617) 523-0003","351 Hanover St","Boston","MA","02113","45"
"Piccolo Nido","https://www.yellowpages.com/boston-ma/mip/piccolo-nido-15857036?lid=15857036","(617) 742-4272","257 North St","Boston","MA","02113","46"
"North 26","https://www.yellowpages.com/boston-ma/mip/north-26-472159064?lid=472159064","(617) 523-4119","26 North St","Boston","MA","02109","47"
"Zen Restaurant","https://www.yellowpages.com/boston-ma/mip/zen-restaurant-461825018?lid=461825018","(617) 371-1230","21 Beacon St","Boston","MA","02108","48"
"Mother Anna's","https://www.yellowpages.com/boston-ma/mip/mother-annas-5393761?lid=5393761","(617) 523-8496","211 Hanover St","Boston","MA","02113","49"
"Hungry I","https://www.yellowpages.com/boston-ma/mip/hungry-i-6947180?lid=6947180","(617) 227-3524","71 1/2 Charles St","Boston","MA","02114","50"
"Boston Sail Loft Restaurant","https://www.yellowpages.com/boston-ma/mip/boston-sail-loft-restaurant-6249403?lid=6249403","(617) 227-7280","80 Atlantic Ave","Boston","MA","02110","51"
"Bin 26 Enoteca","https://www.yellowpages.com/boston-ma/mip/bin-26-enoteca-20388251?lid=20388251","(617) 723-5939","26 Charles St","Boston","MA","02114","52"
"Scampo","https://www.yellowpages.com/boston-ma/mip/scampo-22528070?lid=22528070","(617) 536-2100","215 Charles St","Boston","MA","02114","53"
"Mike's City Diner","https://www.yellowpages.com/boston-ma/mip/mikes-city-diner-3703427?lid=3703427","(617) 267-9393","1714 Washington St","Boston","MA","02118","54"
"606 Congress","https://www.yellowpages.com/boston-ma/mip/606-congress-6348922?lid=6348922","(617) 476-5606","606 Congress St","Boston","MA","02210","55"
"Lo Conte's Restaurant","https://www.yellowpages.com/boston-ma/mip/lo-contes-restaurant-2440689?lid=2440689","(617) 720-0339","114 Salem St # 116","Boston","MA","02113","56"
"The Elephant Walk","https://www.yellowpages.com/boston-ma/mip/the-elephant-walk-473234742?lid=473234742","(617) 247-1500","900 Beacon St","Boston","MA","02215","57"
"Giacomo's Restaurant","https://www.yellowpages.com/boston-ma/mip/giacomos-restaurant-13800192?lid=13800192","(617) 523-9026","355 Hanover St","Boston","MA","02113","58"
"Regina Pizzeria","https://www.yellowpages.com/boston-ma/mip/regina-pizzeria-503972970?lid=503972970","(617) 227-0765","11 1/2 Thacher St","Boston","MA","02113","59"
"Summer Shack","https://www.yellowpages.com/boston-ma/mip/summer-shack-23652?lid=23652","(617) 867-9955","50 Dalton St","Boston","MA","02115","60"
