"business_name","business_page","telephone","street_address","locality","region","postal_code","rank"
"The Four's Restaurant & Sports Bar","https://www.yellowpages.com/boston-ma/mip/the-fours-restaurant-sports-bar-2475158?lid=209428619","(617) 830-1204","166 Canal St","Boston","MA","02114","1"
"No Name Restaurant","https://www.yellowpages.com/boston-ma/mip/no-name-restaurant-8648730?lid=1001715956847","(617) 229-6084","15 Fish Pier St E","Boston","MA","02210","2"
"Aria Trattoria","https://www.yellowpages.com/boston-ma/mip/aria-trattoria-480202715?lid=1000380204864","(617) 580-5141","253 Hanover St","Boston","MA","02113","3"
"The Four's Restaurant & Sports Bar","https://www.yellowpages.com/boston-ma/mip/the-fours-restaurant-sports-bar-460711092?lid=1000273712008","(617) 830-4504","166 Canal St","Boston","MA","02114","4"
"B&G Oysters","https://www.yellowpages.com/boston-ma/mip/b-g-oysters-2650359?lid=2650359","(617) 423-0550","550 Tremont St","Boston","MA","02116","5"
"Morton's The Steakhouse","https://www.yellowpages.com/boston-ma/mip/mortons-the-steakhouse-22589061?lid=22589061","(617) 266-5858","699 Boylston St","Boston","MA","02116","6"
"Abe & Louie's","https://www.yellowpages.com/boston-ma/mip/abe-louies-2198151?lid=2198151","(617) 536-6300","793 Boylston St","Boston","MA","02116","7"
"The Oceanaire Seafood Room","https://www.yellowpages.com/boston-ma/mip/the-oceanaire-seafood-room-455904020?lid=455904020","(617) 742-2277","40 Court St","Boston","MA","02108","8"
"Island Creek Oyster Bar","https://www.yellowpages.com/boston-ma/mip/island-creek-oyster-bar-460080280?lid=460080280","(617) 532-5300","500 Commonwealth Ave","Boston","MA","02215","9"
"Tremont 647","https://www.yellowpages.com/boston-ma/mip/tremont-647-5731916?lid=5731916","(617) 266-4600","647 Tremont St","Boston","MA","02118","10"
"Joe's American Bar & Grill","https://www.yellowpages.com/boston-ma/mip/joes-american-bar-grill-1011023?lid=1011023","(617) 367-8700","100 Atlantic Ave","Boston","MA","02110","11"
"Fire & Ice","https://www.yellowpages.com/boston-ma/mip/fire-ice-7382808?lid=7382808","(617) 482-3473","205 Berkeley St","Boston","MA","02116","12"
"Houlihan's","https://www.yellowpages.com/boston-ma/mip/houlihans-467872658?lid=467872658","(617) 367-6377","60 State St","Boston","MA","02109","13"
"Oceana At The Marriott Long Wharf","https://www.yellowpages.com/boston-ma/mip/oceana-at-the-marriott-long-wharf-471102654?lid=471102654","(617) 227-3838","296 State St","Boston","MA","02109","14"
"Artu","https://www.yellowpages.com/boston-ma/mip/artu-3849315?lid=3849315","(617) 227-9023","89 Charles St","Boston","MA","02114","15"
"McCormick & Schmick's Seafood & Steaks","https://www.yellowpages.com/boston-ma/mip/mccormick-schmicks-seafood-steaks-467887008?lid=467887008","(617) 720-5522","1 Faneuil Hall Market Pl","Boston","MA","02109","16"
"Flames Restaurant II Inc","https://www.yellowpages.com/boston-ma/mip/flames-restaurant-ii-inc-3289242?lid=3289242","(617) 734-1911","746 Huntington Ave","Boston","MA","02115","17"
"Citizen Public House & Oyster Bar","https://www.yellowpages.com/boston-ma/mip/citizen-public-house-oyster-bar-458900906?lid=458900906","(617) 450-9000","1310 Boylston St","Boston","MA","02215","18"
"The North Star","https://www.yellowpages.com/boston-ma/mip/the-north-star-3217193?lid=3217193","(617) 723-3222","222 Friend St","Boston","MA","02114","19"
"Atlantic Fish Co","https://www.yellowpages.com/boston-ma/mip/atlantic-fish-co-8673013?lid=8673013","(617) 267-4000","761 Boylston St","Boston","MA","02116","20"
"Top of the Hub","https://www.yellowpages.com/boston-ma/mip/top-of-the-hub-465512780?lid=465512780","(617) 536-1775","800 Boylston St Fl 52","Boston","MA","02199","21"
"Terramia Ristorante","https://www.yellowpages.com/boston-ma/mip/terramia-ristorante-13507328?lid=13507328","(617) 523-3112","98 Salem St","Boston","MA","02113","22"
"Neptune Oyster","https://www.yellowpages.com/boston-ma/mip/neptune-oyster-3678122?lid=3678122","(617) 742-3474","63 Salem St Apt 1","Boston","MA","02113","23"
"Troquet","https://www.yellowpages.com/boston-ma/mip/troquet-22611122?lid=22611122","(617) 695-9463","140 Boylston St","Boston","MA","02116","24"
"Harvard Gardens","https://www.yellowpages.com/boston-ma/mip/harvard-gardens-22868738?lid=1001876479751","(617) 765-0605","316 Cambridge St","Boston","MA","02114","25"
"21st Amendment","https://www.yellowpages.com/boston-ma/mip/21st-amendment-3466595?lid=3466595","(617) 227-7100","150 Bowdoin St","Boston","MA","02108","26"
"Woody's Grill & Tap","https://www.yellowpages.com/boston-ma/mip/woodys-grill-tap-671276?lid=671276","(617) 375-9663","58 Hemenway St","Boston","MA","02115","27"
"Blackjack Pasta Bar","https://www.yellowpages.com/boston-ma/mip/blackjack-pasta-bar-7016994?lid=7016994","(617) 266-1313","52 Queensberry St","Boston","MA","02215","28"
"Boston Chowda Co","https://www.yellowpages.com/boston-ma/mip/boston-chowda-co-4099713?lid=4099713","(617) 742-7279","1 Faneuil Hall Market Pl","Boston","MA","02109","29"
"The Daily Catch","https://www.yellowpages.com/boston-ma/mip/the-daily-catch-10766579?lid=10766579","(617) 523-8567","323 Hanover St","Boston","MA","02113","30"
"Anthony's Cafe On Waterfront","https://www.yellowpages.com/boston-ma/mip/anthonys-cafe-on-waterfront-13440808?lid=13440808","(617) 742-2987","252 Commercial St","Boston","MA","02109","31"
"Slate Bar & Grill","https://www.yellowpages.com/boston-ma/mip/slate-bar-grill-469828926?lid=469828926","(857) 263-7372","109 High St","Boston","MA","02110","32"
"Toscano Restaurant","https://www.yellowpages.com/boston-ma/mip/toscano-restaurant-19776374?lid=19776374","(617) 723-4090","47 Charles St","Boston","MA","02114","33"
"The Salty Pig","https://www.yellowpages.com/boston-ma/mip/the-salty-pig-7520061?lid=7520061","(617) 536-6200","130 Dartmouth St","Boston","MA","02116","34"
"Prezza","https://www.yellowpages.com/boston-ma/mip/prezza-3573600?lid=3573600","(617) 227-1577","24 Fleet St","Boston","MA","02113","35"
"Tantric India Bistro","https://www.yellowpages.com/boston-ma/mip/tantric-india-bistro-467152615?lid=467152615","(617) 367-8742","123 Stuart St","Boston","MA","02116","36"
"O Ya","https://www.yellowpages.com/boston-ma/mip/o-ya-2586128?lid=2586128","(617) 654-9900","9 East St","Boston","MA","02111","37"
"Ma Maison","https://www.yellowpages.com/boston-ma/mip/ma-maison-11401474?lid=11401474","(617) 725-8855","272 Cambridge St","Boston","MA","02114","38"
"Pagliuca's Restaurant Inc","https://www.yellowpages.com/boston-ma/mip/pagliucas-restaurant-inc-3748766?lid=3748766","(617) 367-1504","14 Parmenter St","Boston","MA","02113","39"
"Storyville","https://www.yellowpages.com/boston-ma/mip/storyville-466910206?lid=466910206","(617) 236-1134","90 Exeter St","Boston","MA","02116","40"
"Mediterranean Grill","https://www.yellowpages.com/boston-ma/mip/mediterranean-grill-10719235?lid=10719235","(617) 338-4507","281 Franklin St","Boston","MA","02110","41"
"Assaggio","https://www.yellowpages.com/boston-ma/mip/assaggio-5188078?lid=5188078","(617) 227-7380","29 Prince St","Boston","MA","02113","42"
"Barking Crab","https://www.yellowpages.com/boston-ma/mip/barking-crab-9021590?lid=9021590","(617) 426-2722","88 Sleeper St","Boston","MA","02210","43"
"Dino's Cafe","https://www.yellowpages.com/boston-ma/mip/dinos-cafe-5835603?lid=5835603","(617) 227-1991","141 Salem St","Boston","MA","02113","44"
"Volle Nolle","https://www.yellowpages.com/boston-ma/mip/volle-nolle-6188138?lid=6188138","(617) 523-0003","351 Hanover St","Boston","MA","02113","45"
"Piccolo Nido","https://www.yellowpages.com/boston-ma/mip/piccolo-nido-15857036?lid=15857036","(617) 742-4272","257 North St","Boston","MA","02113","46"
"North 26","https://www.yellowpages.com/boston-ma/mip/north-26-472159064?lid=472159064","(617) 523-4119","26 North St","Boston","MA","02109","47"
"Zen Restaurant","https://www.yellowpages.com/boston-ma/mip/zen-restaurant-461825018?lid=461825018","(617) 371-1230","21 Beacon St","Boston","MA","02108","48"
"Mother Anna's","https://www.yellowpages.com/boston-ma/mip/mother-annas-5393761?lid=5393761","(617) 523-8496","211 Hanover St","Boston","MA","02113","49"
"Hungry I","https://www.yellowpages.com/boston-ma/mip/hungry-i-6947180?lid=6947180","(617) 227-3524","71 1/2 Charles St","Boston","MA","02114","50"
"Boston Sail Loft Restaurant","https://www.yellowpages.com/boston-ma/mip/boston-sail-loft-restaurant-6249403?lid=6249403","(617) 227-7280","80 Atlantic Ave","Boston","MA","02110","51"
"Bin 26 Enoteca","https://www.yellowpages.com/boston-ma/mip/bin-26-enoteca-20388251?lid=20388251","(617) 723-5939","26 Charles St","Boston","MA","02114","52"
"Scampo","https://www.yellowpages.com/boston-ma/mip/scampo-22528070?lid=22528070","(617) 536-2100","215 Charles St","Boston","MA","02114","53"
"Mike's City Diner","https://www.yellowpages.com/boston-ma/mip/mikes-city-diner-3703427?lid=3703427","(617) 267-9393","1714 Washington St","Boston","MA","02118","54"
"606 Congress","https://www.yellowpages.com/boston-ma/mip/606-congress-6348922?lid=6348922","(617) 476-5606","606 Congress St","Boston","MA","02210","55"
"Lo Conte's Restaurant","https://www.yellowpages.com/boston-ma/mip/lo-contes-restaurant-2440689?lid=2440689","(617) 720-0339","114 Salem St # 116","Boston","MA","02113","56"
"The Elephant Walk","https://www.yellowpages.com/boston-ma/mip/the-elephant-walk-473234742?lid=473234742","(617) 247-1500","900 Beacon St","Boston","MA","02215","57"
"Giacomo's Restaurant","https://www.yellowpages.com/boston-ma/mip/giacomos-restaurant-13800192?lid=13800192","(617) 523-9026","355 Hanover St","Boston","MA","02113","58"
"Regina Pizzeria","https://www.yellowpages.com/boston-ma/mip/regina-pizzeria-503972970?lid=503972970","(617) 227-0765","11 1/2 Thacher St","Boston","MA","02113","59"
"Summer Shack","https://www.yellowpages.com/boston-ma/mip/summer-shack-23652?lid=23652","(617) 867-9955","50 Dalton St","Boston","MA","02115","60"
"The Capital Grille","https://www.yellowpages.com/boston-ma/mip/the-capital-grille-496426846?lid=496426846","(617) 262-8900","900 Boylston St","Boston","MA","02115","61"
"Nebo Restaurant","https://www.yellowpages.com/boston-ma/mip/nebo-restaurant-480170565?lid=480170565","(617) 723-6326","520 Atlantic Ave","Boston","MA","02210","62"
"Franklin Cafe","https://www.yellowpages.com/boston-ma/mip/franklin-cafe-9089948?lid=9089948","(617) 350-0010","278 Shawmut Ave","Boston","MA","02118","63"
"Silvertone Bar & Grill","https://www.yellowpages.com/boston-ma/mip/silvertone-bar-grill-3789584?lid=3789584","(617) 338-7887","69 Bromfield St","Boston","MA","02108","64"
"Bacco Ristorante & Bar","https://www.yellowpages.com/boston-ma/mip/bacco-ristorante-bar-1447105?lid=1447105","(617) 624-0454","107 Salem St","Boston","MA","02113","65"
"Stella's","https://www.yellowpages.com/boston-ma/mip/stellas-14246041?lid=14246041","(617) 247-7747","1525 Washington St","Boston","MA","02118","66"
"Scollay Square","https://www.yellowpages.com/boston-ma/mip/scollay-square-4769748?lid=4769748","(617) 742-4900","21 Beacon St","Boston","MA","02108","67"
"The Paramount","https://www.yellowpages.com/boston-ma/mip/the-paramount-6874419?lid=6874419","(617) 720-1152","44 Charles St","Boston","MA","02114","68"
"P.F. Chang's","https://www.yellowpages.com/boston-ma/mip/p-f-changs-451385299?lid=451385299","(617) 573-0821","8 Park Plz Spc D-6","Boston","MA","02116","69"
"Legal Sea Foods","https://www.yellowpages.com/boston-ma/mip/legal-sea-foods-5288410?lid=5288410","(617) 742-5300","255 State St","Boston","MA","02109","70"
"Masa","https://www.yellowpages.com/boston-ma/mip/masa-9143658?lid=9143658","(617) 338-8884","439 Tremont St","Boston","MA","02116","71"
"Game On Fenway","https://www.yellowpages.com/boston-ma/mip/game-on-fenway-462271634?lid=462271634","(617) 351-7001","82 Lansdowne St","Boston","MA","02215","72"
"Oishii Boston","https://www.yellowpages.com/boston-ma/mip/oishii-boston-3063498?lid=3063498","(617) 482-8868","1166 Washington St Ste 110","Boston","MA","02118","73"
"Hillstone Restaurant","https://www.yellowpages.com/boston-ma/mip/hillstone-restaurant-472769478?lid=472769478","(617) 573-9777","60 State St Ste P","Boston","MA","02109","74"
"Ivy Restaurant","https://www.yellowpages.com/boston-ma/mip/ivy-restaurant-10282797?lid=10282797","(617) 451-1416","49 Temple Pl Ste 1","Boston","MA","02111","75"
"Sakurabana","https://www.yellowpages.com/boston-ma/mip/sakurabana-22589013?lid=22589013","(617) 542-4311","57 Broad St","Boston","MA","02109","76"
"Joe's American Bar & Grill","https://www.yellowpages.com/boston-ma/mip/joes-american-bar-grill-498076979?lid=498076979","(617) 536-4200","181 Newbury St","Boston","MA","02116","77"
"Snappy Sushi","https://www.yellowpages.com/boston-ma/mip/snappy-sushi-3432981?lid=3432981","(617) 262-4530","108 Newbury St","Boston","MA","02116","78"
"Brown Sugar Cafe","https://www.yellowpages.com/boston-ma/mip/brown-sugar-cafe-22348940?lid=22348940","(617) 787-4242","1033 Commonwealth Ave","Boston","MA","02215","79"
"The Elephant Walk South End","https://www.yellowpages.com/boston-ma/mip/the-elephant-walk-south-end-504078103?lid=504078103","(617) 247-1500","1415 Washington St","Boston","MA","02118","80"
"Parish Cafe","https://www.yellowpages.com/boston-ma/mip/parish-cafe-7328841?lid=7328841","(617) 247-4777","361 Boylston St","Boston","MA","02116","81"
"Rabia's Restaurant","https://www.yellowpages.com/boston-ma/mip/rabias-restaurant-537113896?lid=537113896","(617) 227-6637","73 Salem St","Boston","MA","02113","82"
"Grill 23 & Bar","https://www.yellowpages.com/boston-ma/mip/grill-23-bar-9989765?lid=9989765","(307) 265-3242","161 Berkeley St","Boston","MA","02116","83"
"Tia's On The Waterfront","https://www.yellowpages.com/boston-ma/mip/tias-on-the-waterfront-2926075?lid=2926075","(617) 227-0828","200 Atlantic Ave","Boston","MA","02110","84"
"Tiki Island Restaurant","https://www.yellowpages.com/medford-ma/mip/tiki-island-restaurant-9697437?lid=1001773239860","(781) 391-0477","269 Middlesex Ave","Medford","MA","02155","85"
"McFadden's","https://www.yellowpages.com/boston-ma/mip/mcfaddens-5379780?lid=1001876486521","(855) 935-4508","148 State St","Boston","MA","02109","86"
"Charley's","https://www.yellowpages.com/boston-ma/mip/charleys-467895238?lid=467895238","(617) 266-3000","284 Newbury St","Boston","MA","02115","87"
"Del Frisco’s Double Eagle Steak House","https://www.yellowpages.com/boston-ma/mip/del-friscos-double-eagle-steak-house-465512875?lid=465512875","(617) 951-1368","250 Northern Ave Ste 200","Boston","MA","02210","88"
"Salvatore's","https://www.yellowpages.com/boston-ma/mip/salvatores-3159344?lid=3159344","(617) 737-5454","225 Northern Ave","Boston","MA","02210","89"
"Barlola","https://www.yellowpages.com/boston-ma/mip/barlola-1380567?lid=1380567","(617) 266-1122","160 Commonwealth Ave","Boston","MA","02116","90"
"Pops Restaurants","https://www.yellowpages.com/boston-ma/mip/pops-restaurants-12008075?lid=12008075","(617) 695-1250","560 Tremont St","Boston","MA","02118","91"
"Smith & Wollensky","https://www.yellowpages.com/boston-ma/mip/smith-wollensky-466912297?lid=466912297","(617) 778-2200","294 Congress St","Boston","MA","02210","92"
"Legal Test Kitchen","https://www.yellowpages.com/boston-ma/mip/legal-test-kitchen-3129105?lid=3129105","(617) 330-7430","225 Northern Ave","Boston","MA","02210","93"
"The Vault","https://www.yellowpages.com/boston-ma/mip/the-vault-2051406?lid=2051406","(617) 292-3355","105 Water St","Boston","MA","02109","94"
"Mr. Dooley's Boston Tavern","https://www.yellowpages.com/boston-ma/mip/mr-dooleys-boston-tavern-8979724?lid=8979724","(617) 338-5656","77 Broad St","Boston","MA","02109","95"
"Legal Sea Foods","https://www.yellowpages.com/boston-ma/mip/legal-sea-foods-3058868?lid=3058868","(617) 530-9000","1 Seafood Way","Boston","MA","02210","96"
"The Gallows","https://www.yellowpages.com/boston-ma/mip/the-gallows-456350055?lid=456350055","(617) 425-0200","1395 Washington St","Boston","MA","02118","97"
"Caffe Vittoria","https://www.yellowpages.com/boston-ma/mip/caffe-vittoria-7233084?lid=7233084","(617) 227-7606","296 Hanover St","Boston","MA","02113","98"
"Pigalle","https://www.yellowpages.com/boston-ma/mip/pigalle-7305591?lid=7305591","(617) 423-4944","75 Charles St S","Boston","MA","02116","99"
"Gaslight","https://www.yellowpages.com/boston-ma/mip/gaslight-9378181?lid=9378181","(617) 422-0224","560 Harrison Ave","Boston","MA","02118","100"
"Taiwan Cafe","https://www.yellowpages.com/boston-ma/mip/taiwan-cafe-7163299?lid=7163299","(617) 426-8181","34 Oxford St","Boston","MA","02111","101"
"Kingston Station","https://www.yellowpages.com/boston-ma/mip/kingston-station-475831952?lid=475831952","(617) 482-6282","92 Bedford St","Boston","MA","02111","102"
"Canestaro Pizzeria","https://www.yellowpages.com/boston-ma/mip/canestaro-pizzeria-4081730?lid=4081730","(617) 266-8997","16 Peterborough St","Boston","MA","02215","103"
"Sunset Cantina","https://www.yellowpages.com/boston-ma/mip/sunset-cantina-8250373?lid=8250373","(617) 731-8646","916 Commonwealth Ave","Boston","MA","02215","104"
"Cibo","https://www.yellowpages.com/boston-ma/mip/cibo-470901471?lid=470901471","(617) 557-9248","326 Hanover St","Boston","MA","02113","105"
"Les Zygomates","https://www.yellowpages.com/boston-ma/mip/les-zygomates-493224912?lid=493224912","(617) 542-5108","129 South St Ste 101","Boston","MA","02111","106"
"II Villaggio","https://www.yellowpages.com/boston-ma/mip/ii-villaggio-9763398?lid=9763398","(617) 367-2824","230 Hanover St","Boston","MA","02113","107"
"Giacomo's","https://www.yellowpages.com/boston-ma/mip/giacomos-6889327?lid=6889327","(617) 424-9500","431 Columbus Ave","Boston","MA","02116","108"
"Good Life","https://www.yellowpages.com/boston-ma/mip/good-life-11205171?lid=11205171","(617) 451-2622","28 Kingston St","Boston","MA","02111","109"
"Hong Kong At Faneuil Hall","https://www.yellowpages.com/boston-ma/mip/hong-kong-at-faneuil-hall-473486599?lid=473486599","(617) 227-2226","65 Chatham St","Boston","MA","02109","110"
"Typhoon Asian Bistro","https://www.yellowpages.com/boston-ma/mip/typhoon-asian-bistro-10860070?lid=10860070","(617) 859-0220","725 Boylston St","Boston","MA","02116","111"
"Myers + Chang","https://www.yellowpages.com/boston-ma/mip/myers-chang-12871231?lid=12871231","(617) 542-5200","1145 Washington St","Boston","MA","02118","112"
"Bell In Hand Tavern","https://www.yellowpages.com/boston-ma/mip/bell-in-hand-tavern-467861500?lid=467861500","(617) 227-2098","45 Union St","Boston","MA","02108","113"
"Pomodoro","https://www.yellowpages.com/boston-ma/mip/pomodoro-5999579?lid=5999579","(617) 367-4348","351 Hanover St","Boston","MA","02113","114"
"Ristorante Saraceno","https://www.yellowpages.com/boston-ma/mip/ristorante-saraceno-10416889?lid=10416889","(617) 227-5353","286 Hanover St","Boston","MA","02113","115"
"Zen Japanese Grill & Sushi Bar","https://www.yellowpages.com/boston-ma/mip/zen-japanese-grill-sushi-bar-22310541?lid=22310541","(617) 371-1230","21 Beacon St","Boston","MA","02108","116"
"Whiskey's Boston","https://www.yellowpages.com/boston-ma/mip/whiskeys-boston-8589426?lid=8589426","(617) 262-5551","885 Boylston St","Boston","MA","02116","117"
"Chart House","https://www.yellowpages.com/boston-ma/mip/chart-house-497445415?lid=497445415","(617) 227-1576","60 Long Wharf","Boston","MA","02110","118"
"Penang","https://www.yellowpages.com/boston-ma/mip/penang-4824369?lid=4824369","(617) 451-6373","685 Washington St","Boston","MA","02111","119"
"Burton's Grill","https://www.yellowpages.com/boston-ma/mip/burtons-grill-3274136?lid=3274136","(617) 236-2236","1363 Boylston St","Boston","MA","02215","120"
"Haru","https://www.yellowpages.com/boston-ma/mip/haru-459581731?lid=459581731","(617) 536-0770","55 Huntington Ave","Boston","MA","02199","121"
"Thai Basil Restaurant","https://www.yellowpages.com/boston-ma/mip/thai-basil-restaurant-15533496?lid=15533496","(617) 578-0089","132 Newbury St","Boston","MA","02116","122"
"Banq","https://www.yellowpages.com/boston-ma/mip/banq-1343768?lid=1343768","(617) 451-0077","1375 Washington St","Boston","MA","02118","123"
"Dillons","https://www.yellowpages.com/boston-ma/mip/dillons-22292404?lid=22292404","(617) 421-1818","955 Boylston St","Boston","MA","02115","124"
"Ciao Bella","https://www.yellowpages.com/boston-ma/mip/ciao-bella-4179609?lid=4179609","(617) 536-2626","240 Newbury St","Boston","MA","02116","125"
"Bella Vista","https://www.yellowpages.com/boston-ma/mip/bella-vista-3278059?lid=3278059","(617) 367-4999","288 Hanover St","Boston","MA","02113","126"
"Lucia Ristorante","https://www.yellowpages.com/boston-ma/mip/lucia-ristorante-13381842?lid=13381842","(617) 367-2353","415 Hanover St","Boston","MA","02113","127"
"Mission Bar & Grill","https://www.yellowpages.com/boston-ma/mip/mission-bar-grill-6132499?lid=6132499","(617) 566-1244","724 Huntington Ave","Boston","MA","02115","128"
"L'osteria","https://www.yellowpages.com/boston-ma/mip/losteria-4578904?lid=4578904","(617) 723-7847","104 Salem St","Boston","MA","02113","129"
"Suishaya","https://www.yellowpages.com/boston-ma/mip/suishaya-15560361?lid=15560361","(617) 423-3848","2 Tyler St","Boston","MA","02111","130"
"Equator","https://www.yellowpages.com/boston-ma/mip/equator-9996102?lid=9996102","(617) 536-6386","1721 Washington St","Boston","MA","02118","131"
"New King Fung Garden","https://www.yellowpages.com/boston-ma/mip/new-king-fung-garden-6450430?lid=6450430","(617) 357-5262","74 Kneeland St","Boston","MA","02111","132"
"Figs by Todd English","https://www.yellowpages.com/boston-ma/mip/figs-by-todd-english-1666167?lid=1666167","(617) 742-3447","42 Charles St","Boston","MA","02114","133"
"Medieval Manor","https://www.yellowpages.com/boston-ma/mip/medieval-manor-6890881?lid=6890881","(617) 423-4900","246 E Berkeley St","Boston","MA","02118","134"
"Peach Farm Restaurant","https://www.yellowpages.com/boston-ma/mip/peach-farm-restaurant-16251971?lid=16251971","(617) 482-1116","4 Tyler St Ste 1","Boston","MA","02111","135"
"Four Seasons Hotel Boston","https://www.yellowpages.com/boston-ma/mip/four-seasons-hotel-boston-497235391?lid=497235391","(617) 338-4400","200 Boylston St","Boston","MA","02116","136"
"Red Hat Cafe","https://www.yellowpages.com/boston-ma/mip/red-hat-cafe-11352510?lid=11352510","(617) 523-2175","9 Bowdoin St Apt 1","Boston","MA","02114","137"
"Bar 10","https://www.yellowpages.com/boston-ma/mip/bar-10-460585658?lid=460585658","(617) 424-7446","10 Huntington Ave","Boston","MA","02116","138"
"Durgin Park","https://www.yellowpages.com/boston-ma/mip/durgin-park-513504446?lid=513504446","(617) 227-2038","340 N Market St","Boston","MA","02109","139"
"Florentine Cafe","https://www.yellowpages.com/boston-ma/mip/florentine-cafe-14204905?lid=14204905","(617) 227-1777","333 Hanover St","Boston","MA","02113","140"
"Fajitas & 'Ritas","https://www.yellowpages.com/boston-ma/mip/fajitas-ritas-473209293?lid=473209293","(617) 426-1222","25 West St Lbby 1","Boston","MA","02111","141"
"Boston Chowda Co","https://www.yellowpages.com/boston-ma/mip/boston-chowda-co-22314869?lid=22314869","(617) 261-1907","164 Northern Ave","Boston","MA","02210","142"
"Pearl Villa","https://www.yellowpages.com/boston-ma/mip/pearl-villa-11605388?lid=11605388","(617) 338-8770","25 Tyler St","Boston","MA","02111","143"
"Aura","https://www.yellowpages.com/boston-ma/mip/aura-542563806?lid=542563806","(617) 385-4300","1 Seaport Ln","Boston","MA","02210","144"
"Legal Sea Foods","https://www.yellowpages.com/boston-ma/mip/legal-sea-foods-17761507?lid=17761507","(617) 426-4444","26 Park Plz","Boston","MA","02116","145"
"Clink Restaurant","https://www.yellowpages.com/boston-ma/mip/clink-restaurant-540946971?lid=540946971","(617) 224-4004","215 Charles St","Boston","MA","02114","146"
"Sister Sorel","https://www.yellowpages.com/boston-ma/mip/sister-sorel-503184150?lid=503184150","(617) 266-4600","647 Tremont St","Boston","MA","02118","147"
"King Falafel Restaurant","https://www.yellowpages.com/boston-ma/mip/king-falafel-restaurant-496585421?lid=496585421","(617) 227-6400","260 Washington St","Boston","MA","02108","148"
"Gardner Museum Cafe","https://www.yellowpages.com/boston-ma/mip/gardner-museum-cafe-19585129?lid=19585129","(617) 566-1088","25 Evans Way","Boston","MA","02115","149"
"Dom's Restaurant","https://www.yellowpages.com/boston-ma/mip/doms-restaurant-22317519?lid=22317519","(617) 367-8979","10 Bartlett Pl","Boston","MA","02113","150"
"Salty Dog Seafood Grille & Bar","https://www.yellowpages.com/boston-ma/mip/salty-dog-seafood-grille-bar-520808247?lid=520808247","(617) 742-2094","FANEUIL Hall Marketplace","Boston","MA","02109","151"
"Nan Ling Chinese Restaurant","https://www.yellowpages.com/boston-ma/mip/nan-ling-chinese-restaurant-2140557?lid=2140557","(617) 247-1835","179 Massachusetts Ave","Boston","MA","02115","152"
"Kaze Shabu Shabu Restaurant","https://www.yellowpages.com/boston-ma/mip/kaze-shabu-shabu-restaurant-524909682?lid=524909682","(617) 338-8283","1 Harrison Ave","Boston","MA","02111","153"
"Filippo Ristorante","https://www.yellowpages.com/boston-ma/mip/filippo-ristorante-461971767?lid=461971767","(617) 742-4143","283 Causeway St","Boston","MA","02114","154"
"Hennessy's","https://www.yellowpages.com/boston-ma/mip/hennessys-471096385?lid=471096385","(617) 742-2121","25 Union St","Boston","MA","02108","155"
"Legal Sea Foods","https://www.yellowpages.com/boston-ma/mip/legal-sea-foods-8151133?lid=8151133","(617) 266-7775","100 Huntington Ave","Boston","MA","02116","156"
"New Sushi Inc","https://www.yellowpages.com/boston-ma/mip/new-sushi-inc-533468632?lid=533468632","(857) 277-0981","106 Cambridge St","Boston","MA","02114","157"
"Stanhope Grille","https://www.yellowpages.com/boston-ma/mip/stanhope-grille-475800386?lid=475800386","(617) 266-7200","350 Stuart St","Boston","MA","02116","158"
"Bangkok Blue Thai Restaurant","https://www.yellowpages.com/boston-ma/mip/bangkok-blue-thai-restaurant-8251279?lid=8251279","(617) 266-1010","651 Boylston St","Boston","MA","02116","159"
"Palm Restaurant","https://www.yellowpages.com/boston-ma/mip/palm-restaurant-496036865?lid=496036865","(617) 867-9292","200 Dartmouth St","Boston","MA","02116","160"
"The Harp","https://www.yellowpages.com/boston-ma/mip/the-harp-496812415?lid=496812415","(617) 742-1010","85 Causeway St","Boston","MA","02114","161"
"Elephant & Castle","https://www.yellowpages.com/boston-ma/mip/elephant-castle-16569205?lid=16569205","(617) 350-9977","161 Devonshire St","Boston","MA","02110","162"
"New Shanghai Restaurant","https://www.yellowpages.com/boston-ma/mip/new-shanghai-restaurant-6785870?lid=6785870","(617) 338-6688","21 Hudson St","Boston","MA","02111","163"
"Charlie's Sandwich Shoppe","https://www.yellowpages.com/boston-ma/mip/charlies-sandwich-shoppe-9552345?lid=9552345","(617) 536-7669","429 Columbus Ave Ste 1","Boston","MA","02116","164"
"Johnny Rockets","https://www.yellowpages.com/boston-ma/mip/johnny-rockets-22293139?lid=22293139","(617) 442-8002","70 Newmarket Sq","Boston","MA","02118","165"
"Victoria’s Diner","https://www.yellowpages.com/boston-ma/mip/victorias-diner-10048986?lid=10048986","(617) 442-5965","1024 Massachusetts Ave","Boston","MA","02118","166"
"Flat Iron Tapas Bar & Lounge","https://www.yellowpages.com/boston-ma/mip/flat-iron-tapas-bar-lounge-474181736?lid=474181736","(617) 778-2900","107 Merrimac St In The Boxer Hotel","Boston","MA","02114","167"
"Trattoria Di Monica","https://www.yellowpages.com/boston-ma/mip/trattoria-di-monica-12593013?lid=12593013","(617) 720-5472","67 Prince St","Boston","MA","02113","168"
"Boston House of Pizza","https://www.yellowpages.com/boston-ma/mip/boston-house-of-pizza-479701819?lid=479701819","(617) 262-1700","182 Massachusetts Ave","Boston","MA","02115","169"
"Zumas Tex Mex Grill","https://www.yellowpages.com/boston-ma/mip/zumas-tex-mex-grill-461825049?lid=461825049","(617) 367-9114","1 Faneuil Hall Market Pl","Boston","MA","02109","170"
"Cafe Podima","https://www.yellowpages.com/boston-ma/mip/cafe-podima-5073266?lid=5073266","(617) 227-4959","168 Cambridge St","Boston","MA","02114","171"
"Oak long bar and kitchen","https://www.yellowpages.com/boston-ma/mip/oak-long-bar-and-kitchen-473169498?lid=473169498","(617) 267-5300","138 Saint James Ave","Boston","MA","02116","172"
"New Dong Khanh Restaurant","https://www.yellowpages.com/boston-ma/mip/new-dong-khanh-restaurant-538666603?lid=538666603","(617) 426-9410","83 Harrison Ave","Boston","MA","02111","173"
"Barracuda Tavern","https://www.yellowpages.com/boston-ma/mip/barracuda-tavern-459685281?lid=459685281","(617) 482-0301","15 Bosworth St","Boston","MA","02108","174"
"Pushcart Caffe & Pizzaria","https://www.yellowpages.com/boston-ma/mip/pushcart-caffe-pizzaria-19316724?lid=19316724","(617) 523-8123","117 Salem St","Boston","MA","02113","175"
"SideBar Lounge","https://www.yellowpages.com/boston-ma/mip/sidebar-lounge-532004112?lid=532004112","(617) 236-2000","39 Dalton St","Boston","MA","02199","176"
"Pho & I Restaurant","https://www.yellowpages.com/boston-ma/mip/pho-i-restaurant-9680128?lid=9680128","(617) 262-0011","267 Huntington Ave","Boston","MA","02115","177"
"Souper Salad Restaurants","https://www.yellowpages.com/boston-ma/mip/souper-salad-restaurants-6382812?lid=6382812","(617) 232-5599","364 Brookline Ave","Boston","MA","02215","178"
"Uni","https://www.yellowpages.com/boston-ma/mip/uni-23151066?lid=23151066","(617) 536-7200","370 Commonwealth Ave","Boston","MA","02215","179"
"Thai Village","https://www.yellowpages.com/boston-ma/mip/thai-village-15220885?lid=15220885","(617) 536-6548","592 Tremont St","Boston","MA","02118","180"
"Halftime Pizza","https://www.yellowpages.com/boston-ma/mip/halftime-pizza-13138498?lid=13138498","(617) 720-4578","115 Causeway St","Boston","MA","02114","181"
"Osteria Rustico","https://www.yellowpages.com/boston-ma/mip/osteria-rustico-5136452?lid=5136452","(617) 742-8770","85 Canal St","Boston","MA","02114","182"
"My Thai vegan cafe","https://www.yellowpages.com/boston-ma/mip/my-thai-vegan-cafe-457592032?lid=457592032","(617) 451-2395","3 Beach St","Boston","MA","02111","183"
"Pho Pasteur","https://www.yellowpages.com/boston-ma/mip/pho-pasteur-11012709?lid=11012709","(617) 482-7467","682 Washington St","Boston","MA","02111","184"
"B Good","https://www.yellowpages.com/boston-ma/mip/b-good-5958869?lid=5958869","(617) 236-0440","272 Newbury St","Boston","MA","02116","185"
"Pete's Dockside","https://www.yellowpages.com/boston-ma/mip/petes-dockside-452893906?lid=452893906","(617) 423-1110","660 Summer St","Boston","MA","02210","186"
"Marliave","https://www.yellowpages.com/boston-ma/mip/marliave-6080905?lid=6080905","(617) 422-0004","10 Bosworth St","Boston","MA","02108","187"
"Hard Rock Cafe","https://www.yellowpages.com/boston-ma/mip/hard-rock-cafe-12077436?lid=12077436","(617) 424-7625","22 Clinton St","Boston","MA","02109","188"
"Samurai Boston","https://www.yellowpages.com/boston-ma/mip/samurai-boston-8599671?lid=8599671","(617) 236-7672","827 Boylston St","Boston","MA","02116","189"
"Persephone Boston","https://www.yellowpages.com/boston-ma/mip/persephone-boston-6437877?lid=6437877","(617) 695-2257","283 Summer St","Boston","MA","02210","190"
"Erbaluce","https://www.yellowpages.com/boston-ma/mip/erbaluce-11662222?lid=11662222","(617) 426-6969","69 Church St","Boston","MA","02116","191"
"Four Seasons","https://www.yellowpages.com/boston-ma/mip/four-seasons-532806305?lid=532806305","(617) 351-2037","200 Boylston St","Boston","MA","02116","192"
"Hei La Moon","https://www.yellowpages.com/boston-ma/mip/hei-la-moon-585210?lid=585210","(617) 338-8813","88 Beach St","Boston","MA","02111","193"
"Hurricane O'Reilly's","https://www.yellowpages.com/boston-ma/mip/hurricane-oreillys-4853612?lid=4853612","(617) 722-0161","150 Canal St","Boston","MA","02114","194"
"West End Pizza","https://www.yellowpages.com/boston-ma/mip/west-end-pizza-4342986?lid=4342986","(617) 557-0009","252 Friend St","Boston","MA","02114","195"
"The Hen House","https://www.yellowpages.com/boston-ma/mip/the-hen-house-13064250?lid=13064250","(617) 442-9464","1033 Massachusetts Ave","Boston","MA","02118","196"
"Taj Boston","https://www.yellowpages.com/boston-ma/mip/taj-boston-479797255?lid=479797255","(617) 536-5700","15 Arlington St","Boston","MA","02116","197"
"Antonio's","https://www.yellowpages.com/boston-ma/mip/antonios-524792130?lid=524792130","(617) 367-3310","286 Cambridge St","Boston","MA","02114","198"
"Pad Thai Cafe","https://www.yellowpages.com/boston-ma/mip/pad-thai-cafe-9366058?lid=9366058","(617) 247-3399","1116 Boylston St","Boston","MA","02215","199"
"Casalinga","https://www.yellowpages.com/boston-ma/mip/casalinga-541786907?lid=541786907","(857) 233-4842","151 Hanover St","Boston","MA","02108","200"
"Nick Varano's Famous Deli","https://www.yellowpages.com/boston-ma/mip/nick-varanos-famous-deli-23178252?lid=23178252","(617) 391-0050","66 Cross St","Boston","MA","02113","201"
"The Q Restaurant","https://www.yellowpages.com/boston-ma/mip/the-q-restaurant-460163278?lid=460163278","(857) 350-3968","660 Washington St","Boston","MA","02111","202"
"Cheers","https://www.yellowpages.com/boston-ma/mip/cheers-530935409?lid=530935409","(617) 227-9605","84 Beacon St","Boston","MA","02108","203"
"Legal Sea Foods","https://www.yellowpages.com/boston-ma/mip/legal-sea-foods-473071680?lid=473071680","(617) 330-7430","225 Northern Ave","Boston","MA","02210","204"
"Pan Thai Restaurant","https://www.yellowpages.com/boston-ma/mip/pan-thai-restaurant-4980327?lid=4980327","(617) 236-5135","14a Westland Ave","Boston","MA","02115","205"
"Seiyo Sushi & Wine Shop","https://www.yellowpages.com/boston-ma/mip/seiyo-sushi-wine-shop-460460673?lid=460460673","(617) 447-2183","1721 Washington St","Boston","MA","02118","206"
"Fins Sushi","https://www.yellowpages.com/boston-ma/mip/fins-sushi-533418146?lid=533418146","(617) 267-8888","636 Beacon St Ste A","Boston","MA","02215","207"
"Basho Japanese Brasserie","https://www.yellowpages.com/boston-ma/mip/basho-japanese-brasserie-451800452?lid=451800452","(617) 262-1338","1338 Boylston St","Boston","MA","02215","208"
"Towne Stove and Spirits","https://www.yellowpages.com/boston-ma/mip/towne-stove-and-spirits-456890063?lid=456890063","(617) 262-8900","900 Boylston St","Boston","MA","02115","209"
"Ueno Sushi","https://www.yellowpages.com/boston-ma/mip/ueno-sushi-17714532?lid=17714532","(617) 723-1641","1 Faneuil Hall Market Pl","Boston","MA","02109","210"
"Jade Garden","https://www.yellowpages.com/boston-ma/mip/jade-garden-26237541?lid=26237541","(617) 423-3288","20 Tyler St","Boston","MA","02111","211"
"Bennigan's","https://www.yellowpages.com/boston-ma/mip/bennigans-12514630?lid=12514630","(617) 227-3754","191 Stuart St","Boston","MA","02116","212"
"Stoddard's Fine Food & Ale","https://www.yellowpages.com/boston-ma/mip/stoddards-fine-food-ale-486825851?lid=486825851","(617) 426-0048","48 Temple Pl","Boston","MA","02111","213"
"P.F. Chang's China Bistro","https://www.yellowpages.com/boston-ma/mip/p-f-changs-china-bistro-451357094?lid=451357094","(617) 378-9961","800 Boylston St","Boston","MA","02199","214"
"Tasty Bbq","https://www.yellowpages.com/boston-ma/mip/tasty-bbq-542899808?lid=542899808","(857) 350-3157","417 Washington St","Boston","MA","02108","215"
"wagamama","https://www.yellowpages.com/boston-ma/mip/wagamama-521228757?lid=521228757","(617) 523-1300","1 Faneuil Hall Sq","Boston","MA","02109","216"
"Pho Hoa Noodle Soup","https://www.yellowpages.com/boston-ma/mip/pho-hoa-noodle-soup-7968366?lid=7968366","(617) 423-3934","17 Beach St","Boston","MA","02111","217"
"Max Brenner","https://www.yellowpages.com/boston-ma/mip/max-brenner-465516268?lid=465516268","(617) 274-1741","745 Boylston St","Boston","MA","02116","218"
"Pavement Coffeehouse","https://www.yellowpages.com/boston-ma/mip/pavement-coffeehouse-472873340?lid=472873340","(617) 859-7080","44 Gainsborough St","Boston","MA","02115","219"
"Venice Cafe","https://www.yellowpages.com/boston-ma/mip/venice-cafe-480645968?lid=480645968","(617) 227-2094","204 Cambridge St","Boston","MA","02114","220"
"McGann's Pub","https://www.yellowpages.com/boston-ma/mip/mcganns-pub-8602006?lid=8602006","(617) 227-4059","197 Portland St","Boston","MA","02114","221"
"Beijing On The Common","https://www.yellowpages.com/boston-ma/mip/beijing-on-the-common-457979097?lid=457979097","(617) 695-0909","62 Boylston St","Boston","MA","02116","222"
"Shojo","https://www.yellowpages.com/boston-ma/mip/shojo-472268979?lid=472268979","(617) 423-7888","9 Tyler St","Boston","MA","02111","223"
"Winsor Dim Sum Cafe","https://www.yellowpages.com/boston-ma/mip/winsor-dim-sum-cafe-13336200?lid=13336200","(617) 338-1688","10 Tyler St","Boston","MA","02111","224"
"Panza","https://www.yellowpages.com/boston-ma/mip/panza-23166966?lid=23166966","(617) 557-9248","326 Hanover St","Boston","MA","02113","225"
"Market By Jean Georges","https://www.yellowpages.com/boston-ma/mip/market-by-jean-georges-472151503?lid=472151503","(617) 310-6790","100 Stuart St","Boston","MA","02116","226"
"Ducali Pizzeria & Bar","https://www.yellowpages.com/boston-ma/mip/ducali-pizzeria-bar-23178251?lid=23178251","(617) 742-4144","289 Causeway St","Boston","MA","02114","227"
"Mike & Patty's","https://www.yellowpages.com/boston-ma/mip/mike-pattys-22305665?lid=22305665","(617) 423-3447","12 Church St","Boston","MA","02116","228"
"Cosi","https://www.yellowpages.com/boston-ma/mip/cosi-504069409?lid=504069409","(617) 720-2674","2 Seaport Ln","Boston","MA","02210","229"
"Nud Pob Thai Cuising","https://www.yellowpages.com/boston-ma/mip/nud-pob-thai-cuising-456737855?lid=456737855","(617) 232-9992","738 Commonwealth Ave","Boston","MA","02215","230"
"Smile Thai Noodle","https://www.yellowpages.com/boston-ma/mip/smile-thai-noodle-1224076?lid=1224076","(617) 782-0201","1095 Commonwealth Ave Ste 203","Boston","MA","02215","231"
"Gourmet Dumpling House","https://www.yellowpages.com/boston-ma/mip/gourmet-dumpling-house-471830735?lid=471830735","(617) 338-6223","52 Beach St","Boston","MA","02111","232"
"Atlantic Beer Garden","https://www.yellowpages.com/boston-ma/mip/atlantic-beer-garden-3190900?lid=3190900","(617) 357-8000","146 Northern Ave","Boston","MA","02210","233"
"Pizza Stop","https://www.yellowpages.com/boston-ma/mip/pizza-stop-10123814?lid=10123814","(617) 427-4054","851 Harrison Ave","Boston","MA","02118","234"
"Brigham Circle Chinese Food","https://www.yellowpages.com/boston-ma/mip/brigham-circle-chinese-food-2730870?lid=2730870","(617) 278-2000","728 Huntington Ave","Boston","MA","02115","235"
"Mija Cantina & Tequila Bar","https://www.yellowpages.com/boston-ma/mip/mija-cantina-tequila-bar-483873324?lid=483873324","(857) 284-7382","1 Faneuil Hall Market Pl","Boston","MA","02109","236"
"Hot Tomatoes","https://www.yellowpages.com/boston-ma/mip/hot-tomatoes-12500568?lid=12500568","(617) 292-0233","92 Bedford St","Boston","MA","02111","237"
"New Golden Gate Inc","https://www.yellowpages.com/boston-ma/mip/new-golden-gate-inc-9564758?lid=9564758","(617) 338-7721","66 Beach St","Boston","MA","02111","238"
"Xhale","https://www.yellowpages.com/boston-ma/mip/xhale-468341836?lid=468341836","(617) 536-9000","47 Huntington Ave","Boston","MA","02116","239"
"Franklin Southie","https://www.yellowpages.com/boston-ma/mip/franklin-southie-11293392?lid=11293392","(617) 269-1003","152 Dorchester Ave","Boston","MA","02127","240"
"Yummee Chinese Restaurant","https://www.yellowpages.com/boston-ma/mip/yummee-chinese-restaurant-5414451?lid=5414451","(617) 267-0488","665 Tremont St","Boston","MA","02118","241"
"New China Restaurant","https://www.yellowpages.com/boston-ma/mip/new-china-restaurant-6423519?lid=6423519","(617) 445-9670","869 Harrison Ave","Boston","MA","02118","242"
"Artisan Bistro","https://www.yellowpages.com/boston-ma/mip/artisan-bistro-471101746?lid=471101746","(617) 574-7176","10 Avery Street The Ritz-Carlton Boston Common","Boston","MA","02111","243"
"Panera Bread","https://www.yellowpages.com/boston-ma/mip/panera-bread-470635036?lid=470635036","(617) 722-8234","115 Stuart St","Boston","MA","02116","244"
"Panera Bread","https://www.yellowpages.com/boston-ma/mip/panera-bread-453041845?lid=453041845","(617) 247-0174","201 Brookline Ave","Boston","MA","02215","245"
"Carrie Nation Cocktail Club","https://www.yellowpages.com/boston-ma/mip/carrie-nation-cocktail-club-480184212?lid=480184212","(617) 227-3100","11 Beacon St","Boston","MA","02108","246"
"Mast Restaurant And Drinkery","https://www.yellowpages.com/boston-ma/mip/mast-restaurant-and-drinkery-496229763?lid=496229763","(617) 936-3800","45 Province St","Boston","MA","02108","247"
"Luke’s Lobster","https://www.yellowpages.com/boston-ma/mip/lukes-lobster-530413314?lid=530413314","(857) 317-4843","290 Washington St","Boston","MA","02108","248"
"Legal Sea Foods","https://www.yellowpages.com/boston-ma/mip/legal-sea-foods-462986100?lid=462986100","(617) 568-2800","Airport Road Terminal C Main Terminal Security Checkpoint","Boston","MA","02128","249"
"Pabu-Boston","https://www.yellowpages.com/boston-ma/mip/pabu-boston-531697425?lid=531697425","(857) 327-7228","3 Franklin St","Boston","MA","02110","250"
"Corporate Tasty Burger","https://www.yellowpages.com/boston-ma/mip/corporate-tasty-burger-504010397?lid=504010397","(857) 277-0123","47 Winter St","Boston","MA","02108","251"
"Dick's Last Resort","https://www.yellowpages.com/boston-ma/mip/dicks-last-resort-481122017?lid=481122017","(617) 267-8080","1 Faneuil Hall Sq","Boston","MA","02109","252"
"Koy","https://www.yellowpages.com/boston-ma/mip/koy-503182697?lid=503182697","(857) 991-1483","16 North St","Boston","MA","02109","253"
"Crush Artisan Wood Fried Pizza","https://www.yellowpages.com/boston-ma/mip/crush-artisan-wood-fried-pizza-482155365?lid=482155365","(857) 350-4222","107 State St","Boston","MA","02109","254"
"Vanderbilt Kitchen & Bar","https://www.yellowpages.com/boston-ma/mip/vanderbilt-kitchen-bar-509370650?lid=509370650","(617) 292-3355","105 Water St","Boston","MA","02109","255"
"Bostonia Public House","https://www.yellowpages.com/boston-ma/mip/bostonia-public-house-497658127?lid=497658127","(617) 948-9800","131 State St","Boston","MA","02109","256"
"Warehouse Bar & Grille","https://www.yellowpages.com/boston-ma/mip/warehouse-bar-grille-481141700?lid=481141700","(617) 936-4383","40 Broad St","Boston","MA","02109","257"
"Boston College Club","https://www.yellowpages.com/boston-ma/mip/boston-college-club-459324435?lid=459324435","(617) 946-2828","100 Federal St","Boston","MA","02110","258"
"Kingston Grille & Bar","https://www.yellowpages.com/boston-ma/mip/kingston-grille-bar-525940086?lid=525940086","(857) 233-4514","25 Kingston St","Boston","MA","02111","259"
"Granary Tavern","https://www.yellowpages.com/boston-ma/mip/granary-tavern-472964884?lid=472964884","(617) 449-7110","170 Milk St","Boston","MA","02109","260"
"Freshii","https://www.yellowpages.com/boston-ma/mip/freshii-470034990?lid=470034990","(857) 233-2674","100 High St","Boston","MA","02110","261"
"Legal Crossing","https://www.yellowpages.com/boston-ma/mip/legal-crossing-482437670?lid=482437670","(617) 692-8888","558 Washington St","Boston","MA","02111","262"
"Serafina Boston","https://www.yellowpages.com/boston-ma/mip/serafina-boston-506160798?lid=506160798","(617) 426-1234","10 High St","Boston","MA","02110","263"
"Pauli's","https://www.yellowpages.com/boston-ma/mip/paulis-534596741?lid=534596741","(857) 284-7064","65 Salem St","Boston","MA","02113","264"
"Cobblestone Cafe","https://www.yellowpages.com/boston-ma/mip/cobblestone-cafe-480719799?lid=480719799","(857) 263-8057","227 Hanover St","Boston","MA","02113","265"
"The Palm Boston","https://www.yellowpages.com/boston-ma/mip/the-palm-boston-480197715?lid=480197715","(617) 867-9292","100 Oliver St Lobby Level","Boston","MA","02110","266"
"Bricco","https://www.yellowpages.com/boston-ma/mip/bricco-476264629?lid=476264629","(617) 248-6800","241 Hanover St","Boston","MA","02113","267"
"Avery Bar","https://www.yellowpages.com/boston-ma/mip/avery-bar-544895222?lid=544895222","(617) 574-7176","10 Avery St","Boston","MA","02111","268"
"Ruby Room","https://www.yellowpages.com/boston-ma/mip/ruby-room-12071385?lid=12071385","(617) 557-9950","155 Portland St","Boston","MA","02114","269"
"Parla","https://www.yellowpages.com/boston-ma/mip/parla-508240646?lid=508240646","(617) 367-2824","230 Hanover St","Boston","MA","02113","270"
"Caffe Paradiso","https://www.yellowpages.com/boston-ma/mip/caffe-paradiso-7889654?lid=7889654","(617) 742-1768","255 Hanover St","Boston","MA","02113","271"
"La Famiglia Spagnuolo","https://www.yellowpages.com/boston-ma/mip/la-famiglia-spagnuolo-496684976?lid=496684976","(617) 742-9124","240 Hanover St","Boston","MA","02113","272"
"Townsman","https://www.yellowpages.com/boston-ma/mip/townsman-505174001?lid=505174001","(617) 993-0750","120 Kingston St","Boston","MA","02111","273"
"North End Fish Market","https://www.yellowpages.com/boston-ma/mip/north-end-fish-market-483877077?lid=483877077","(857) 362-7477","99 Salem St","Boston","MA","02113","274"
"Causeway Restaurant & Bar","https://www.yellowpages.com/boston-ma/mip/causeway-restaurant-bar-474575815?lid=474575815","(617) 227-9100","65 Causeway St","Boston","MA","02114","275"
"Miel","https://www.yellowpages.com/boston-ma/mip/miel-925945?lid=925945","(617) 217-5151","510 Atlantic Ave","Boston","MA","02210","276"
"Carmelina's","https://www.yellowpages.com/boston-ma/mip/carmelinas-473675617?lid=473675617","(617) 742-0020","307 Hanover St","Boston","MA","02113","277"
"Pellino's Ristorante","https://www.yellowpages.com/boston-ma/mip/pellinos-ristorante-470601429?lid=470601429","(617) 227-7300","2 Prince St","Boston","MA","02113","278"
"Bubor Cha Cha","https://www.yellowpages.com/boston-ma/mip/bubor-cha-cha-456120372?lid=456120372","(617) 482-3338","45 Beach St","Boston","MA","02111","279"
"Trade","https://www.yellowpages.com/boston-ma/mip/trade-468260065?lid=468260065","(617) 451-1234","540 Atlantic Ave","Boston","MA","02210","280"
"Montien Thai Restaurant","https://www.yellowpages.com/boston-ma/mip/montien-thai-restaurant-10030926?lid=10030926","(617) 338-5600","63 Stuart St","Boston","MA","02116","281"
"Bistro du Midi","https://www.yellowpages.com/boston-ma/mip/bistro-du-midi-461972220?lid=461972220","(617) 426-7878","272 Boylston St","Boston","MA","02116","282"
"Chinese Progressive Association","https://www.yellowpages.com/boston-ma/mip/chinese-progressive-association-465641713?lid=465641713","(617) 357-4499","1 Nassau St","Boston","MA","02111","283"
"Strip By Strega","https://www.yellowpages.com/boston-ma/mip/strip-by-strega-508240594?lid=508240594","(617) 456-5300","64 Arlington St","Boston","MA","02116","284"
"Pastoral","https://www.yellowpages.com/boston-ma/mip/pastoral-495393204?lid=495393204","(617) 345-0005","345 Congress St","Boston","MA","02210","285"
"Babbo Pizzeria","https://www.yellowpages.com/boston-ma/mip/babbo-pizzeria-505952227?lid=505952227","(617) 421-4466","11 Fan Pier Blvd","Boston","MA","02210","286"
"Mastro's Ocean Club","https://www.yellowpages.com/boston-ma/mip/mastros-ocean-club-535841895?lid=535841895","(617) 530-1925","25 Fan Pier Blvd","Boston","MA","02210","287"
"Marco Polo Inc","https://www.yellowpages.com/boston-ma/mip/marco-polo-inc-9073809?lid=9073809","(617) 695-9039","274 Summer St Lbby 1","Boston","MA","02210","288"
"Mooncusser Fish House","https://www.yellowpages.com/boston-ma/mip/mooncusser-fish-house-538583381?lid=538583381","(617) 917-5193","304 Stuart St","Boston","MA","02116","289"
"Back Bay Harry's","https://www.yellowpages.com/boston-ma/mip/back-bay-harrys-482198859?lid=482198859","(617) 424-6711","142 Berkeley St","Boston","MA","02116","290"
"wagamama","https://www.yellowpages.com/boston-ma/mip/wagamama-535835928?lid=535835928","(857) 233-2817","100 Northern Ave","Boston","MA","02210","291"
"Honey Grow","https://www.yellowpages.com/boston-ma/mip/honey-grow-541514105?lid=541514105","(857) 350-3642","100 Northern Ave","Boston","MA","02210","292"
"Ocean Prime","https://www.yellowpages.com/boston-ma/mip/ocean-prime-523996434?lid=523996434","(617) 670-1345","140 Seaport Blvd","Boston","MA","02210","293"
"Wink & Nod","https://www.yellowpages.com/boston-ma/mip/wink-nod-495862353?lid=495862353","(617) 482-0117","3 Appleton St","Boston","MA","02116","294"
"The Brahmin","https://www.yellowpages.com/boston-ma/mip/the-brahmin-469715111?lid=469715111","(617) 723-3131","33 Stanhope St","Boston","MA","02116","295"
"Red Lantern","https://www.yellowpages.com/boston-ma/mip/red-lantern-465516375?lid=465516375","(617) 262-3900","39 Stanhope St","Boston","MA","02116","296"
"Bon Me","https://www.yellowpages.com/boston-ma/mip/bon-me-538628236?lid=538628236","(857) 233-2607","441 Stuart St","Boston","MA","02116","297"
"J.J. Foley's Cafe","https://www.yellowpages.com/boston-ma/mip/j-j-foleys-cafe-18231381?lid=18231381","(617) 728-9101","117 E Berkeley St","Boston","MA","02118","298"
"Area Four Boston","https://www.yellowpages.com/boston-ma/mip/area-four-boston-531741542?lid=531741542","(857) 317-4805","264 E Berkeley St","Boston","MA","02118","299"
"Tamo Bistro & Bar","https://www.yellowpages.com/boston-ma/mip/tamo-bistro-bar-451335312?lid=451335312","(617) 385-4304","1 Seaport Ln","Boston","MA","02210","300"
"Crudo","https://www.yellowpages.com/boston-ma/mip/crudo-515505785?lid=515505785","(617) 367-6500","78 Salem St","Boston","MA","02113","301"
"Winsor Dim Sum Cafe","https://www.yellowpages.com/boston-ma/mip/winsor-dim-sum-cafe-13336200?lid=13336200","(617) 338-1688","10 Tyler St","Boston","MA","02111","302"
"U Burger","https://www.yellowpages.com/boston-ma/mip/u-burger-12833328?lid=12833328","(617) 487-4855","1022 Commonwealth Ave","Boston","MA","02215","303"
"Darryl's Corner Bar and Kitchen","https://www.yellowpages.com/boston-ma/mip/darryls-corner-bar-and-kitchen-26235685?lid=26235685","(617) 536-1100","604 Columbus Ave","Boston","MA","02118","304"
"Hot Pot Buffet","https://www.yellowpages.com/boston-ma/mip/hot-pot-buffet-456990305?lid=456990305","(617) 338-0808","70 Beach St Ste 1","Boston","MA","02111","305"
"Vejigantes Restaurant","https://www.yellowpages.com/boston-ma/mip/vejigantes-restaurant-15137687?lid=15137687","(617) 247-9249","57 W Dedham St","Boston","MA","02118","306"
"Alibi Bar and Lounge","https://www.yellowpages.com/boston-ma/mip/alibi-bar-and-lounge-22434876?lid=22434876","(857) 241-1144","215 Charles St","Boston","MA","02114","307"
"New Jumbo Seafood Restaurant","https://www.yellowpages.com/boston-ma/mip/new-jumbo-seafood-restaurant-7505682?lid=7505682","(617) 542-2823","7 Hudson St","Boston","MA","02111","308"
"Kashmir","https://www.yellowpages.com/boston-ma/mip/kashmir-6391628?lid=6391628","(617) 536-1695","279 Newbury St","Boston","MA","02116","309"
"Addis Red Sea Ethiopian Restaurant","https://www.yellowpages.com/boston-ma/mip/addis-red-sea-ethiopian-restaurant-12580301?lid=12580301","(617) 426-8727","544 Tremont St","Boston","MA","02116","310"
"Area Four Boston","https://www.yellowpages.com/boston-ma/mip/area-four-boston-531741542?lid=531741542","(857) 317-4805","264 E Berkeley St","Boston","MA","02118","311"
"Pabu-Boston","https://www.yellowpages.com/boston-ma/mip/pabu-boston-531697425?lid=531697425","(857) 327-7228","3 Franklin St","Boston","MA","02110","312"
"City Tap","https://www.yellowpages.com/boston-ma/mip/city-tap-531563365?lid=531563365","(617) 904-2748","10 Boston Wharf Rd","Boston","MA","02210","313"
"Tiger Mama","https://www.yellowpages.com/boston-ma/mip/tiger-mama-519731904?lid=519731904","(617) 425-6262","1363 Boylston St","Boston","MA","02215","314"
"Legal Sea Foods","https://www.yellowpages.com/boston-ma/mip/legal-sea-foods-462986100?lid=462986100","(617) 568-2800","Airport Road Terminal C Main Terminal Security Checkpoint","Boston","MA","02128","315"
"Artu","https://www.yellowpages.com/boston-ma/mip/artu-3849315?lid=3849315","(617) 227-9023","89 Charles St","Boston","MA","02114","316"
"Roost Bistro","https://www.yellowpages.com/boston-ma/mip/roost-bistro-497679585?lid=497679585","(617) 587-4222","259 Newbury St","Boston","MA","02116","317"
"Warehouse Bar & Grille","https://www.yellowpages.com/boston-ma/mip/warehouse-bar-grille-481141700?lid=481141700","(617) 936-4383","40 Broad St","Boston","MA","02109","318"
"Precinct Kitchen + Bar","https://www.yellowpages.com/boston-ma/mip/precinct-kitchen-bar-496511995?lid=496511995","(617) 532-3827","154 Berkeley St","Boston","MA","02116","319"
"Ginger Exchange","https://www.yellowpages.com/boston-ma/mip/ginger-exchange-480178382?lid=480178382","(617) 867-9999","250 Huntington Ave","Boston","MA","02115","320"
"Parish Cafe","https://www.yellowpages.com/boston-ma/mip/parish-cafe-466621290?lid=466621290","(617) 391-0501","493 Massachusetts Ave","Boston","MA","02118","321"
"Billy Tse Restaurant","https://www.yellowpages.com/boston-ma/mip/billy-tse-restaurant-5155492?lid=5155492","(617) 227-9990","240 Commercial St","Boston","MA","02109","322"
"Mast Restaurant And Drinkery","https://www.yellowpages.com/boston-ma/mip/mast-restaurant-and-drinkery-496229763?lid=496229763","(617) 936-3800","45 Province St","Boston","MA","02108","323"
"Uno Due Go","https://www.yellowpages.com/boston-ma/mip/uno-due-go-469832004?lid=469832004","(617) 695-1834","52 Summer St","Boston","MA","02110","324"
"China King","https://www.yellowpages.com/boston-ma/mip/china-king-472139806?lid=472139806","(617) 542-1763","60 Beach St","Boston","MA","02111","325"
"Regina Pizzeria","https://www.yellowpages.com/boston-ma/mip/regina-pizzeria-483852584?lid=483852584","(617) 261-6600","700 Atlantic Ave","Boston","MA","02111","326"
"King Falafel Restaurant","https://www.yellowpages.com/boston-ma/mip/king-falafel-restaurant-496585421?lid=496585421","(617) 227-6400","260 Washington St","Boston","MA","02108","327"
"Vino Volo","https://www.yellowpages.com/boston-ma/mip/vino-volo-520827652?lid=520827652","(617) 568-0051","Airport Road Terminal E Departures Food Court","Boston","MA","02128","328"
"The Ginger Man","https://www.yellowpages.com/boston-ma/mip/the-ginger-man-521792861?lid=521792861","(617) 936-4241","148 State St","Boston","MA","02109","329"
"Shabu Maru","https://www.yellowpages.com/boston-ma/mip/shabu-maru-503182694?lid=503182694","(617) 437-8888","10 Huntington Ave","Boston","MA","02116","330"
"Pops","https://www.yellowpages.com/boston-ma/mip/pops-479631409?lid=479631409","(617) 695-1250","10 Bosworth St","Boston","MA","02108","331"
"Game On","https://www.yellowpages.com/boston-ma/mip/game-on-15801449?lid=15801449","(617) 567-3090","Airport Road Terminal A Satellite Concourse Gate A-15","Boston","MA","02128","332"
"Daily Catch Restaurant","https://www.yellowpages.com/boston-ma/mip/daily-catch-restaurant-503128053?lid=503128053","(617) 338-3093","2 Northern Ave, 2 Northern Ave, 02210, Boston, Massachusetts","Boston","MA","02210","333"
"Vino Volo","https://www.yellowpages.com/boston-ma/mip/vino-volo-520827652?lid=520827652","(617) 568-0051","Airport Road Terminal E Departures Food Court","Boston","MA","02128","334"
"Pabu Restaurant","https://www.yellowpages.com/boston-ma/mip/pabu-restaurant-542160345?lid=542160345","(857) 957-0658","1 Franklin St","Boston","MA","02110","335"
"Dragon Chef","https://www.yellowpages.com/boston-ma/mip/dragon-chef-467330974?lid=467330974","(617) 782-6500","411 Washington St","Boston","MA","02108","336"
"Sterling's","https://www.yellowpages.com/boston-ma/mip/sterlings-497642063?lid=497642063","(617) 531-8200","60 State St","Boston","MA","02109","337"
"Thai Accent Downtown Crossing","https://www.yellowpages.com/boston-ma/mip/thai-accent-downtown-crossing-543558945?lid=543558945","(617) 482-1728","417 Washington St","Boston","MA","02108","338"
"Jcc Restaurant Group","https://www.yellowpages.com/boston-ma/mip/jcc-restaurant-group-527259085?lid=527259085","(617) 936-4494","16 Derne St","Boston","MA","02114","339"
"Wong's Of Boston","https://www.yellowpages.com/boston-ma/mip/wongs-of-boston-928604?lid=928604","(617) 482-9069","11 Winter St","Boston","MA","02108","340"
"Raglin Road Inc","https://www.yellowpages.com/boston-ma/mip/raglin-road-inc-483334842?lid=483334842","(617) 482-6060","60 Franklin St","Boston","MA","02110","341"
"Pavia","https://www.yellowpages.com/boston-ma/mip/pavia-465659313?lid=465659313","(617) 720-3000","82 Water St","Boston","MA","02109","342"
"68 Chinese Best Food","https://www.yellowpages.com/boston-ma/mip/68-chinese-best-food-500058882?lid=500058882","(617) 338-2137","48 Winter St","Boston","MA","02108","343"
"La Pastaria","https://www.yellowpages.com/boston-ma/mip/la-pastaria-480171216?lid=480171216","(617) 523-3858","1 Faneuil Hall Market Pl","Boston","MA","02109","344"
"Bangkok Express","https://www.yellowpages.com/boston-ma/mip/bangkok-express-7435768?lid=7435768","(617) 723-2758","1 Faneuil Hall Market Pl","Boston","MA","02109","345"
"Anchor & Hope","https://www.yellowpages.com/boston-ma/mip/anchor-hope-524846171?lid=524846171","(415) 501-9100","51 Franklin St","Boston","MA","02110","346"
"Piadina Cafe","https://www.yellowpages.com/boston-ma/mip/piadina-cafe-495665675?lid=495665675","(617) 936-4453","75 State St","Boston","MA","02109","347"
"wagamama","https://www.yellowpages.com/boston-ma/mip/wagamama-483877042?lid=483877042","(617) 278-2121","FANEUIL Hall Marketplace","Boston","MA","02109","348"
"Hard Rock Cafe","https://www.yellowpages.com/boston-ma/mip/hard-rock-cafe-534814288?lid=534814288","(617) 424-7625","22 Faneuil Hall Sq","Boston","MA","02109","349"
"State Street Sushi","https://www.yellowpages.com/boston-ma/mip/state-street-sushi-505004974?lid=505004974","(857) 233-5083","92 State St","Boston","MA","02109","350"
"The Blackstone Grill","https://www.yellowpages.com/boston-ma/mip/the-blackstone-grill-1889610?lid=1889610","(857) 265-3480","15 Union St","Boston","MA","02108","351"
"U Burger","https://www.yellowpages.com/boston-ma/mip/u-burger-475831921?lid=475831921","(857) 265-3178","16 North St","Boston","MA","02109","352"
"Zuma Tex-Mex","https://www.yellowpages.com/boston-ma/mip/zuma-tex-mex-480014236?lid=480014236","(617) 367-9114","7 N Market St","Boston","MA","02109","353"
"Bailey & Sage","https://www.yellowpages.com/boston-ma/mip/bailey-sage-459622045?lid=459622045","(857) 350-3032","103 State St","Boston","MA","02109","354"
"Luby's","https://www.yellowpages.com/boston-ma/mip/lubys-544267328?lid=544267328","(617) 328-2800","101 Arch St","Boston","MA","02110","355"
"Blue Jujfuji","https://www.yellowpages.com/boston-ma/mip/blue-jujfuji-505889454?lid=505889454","(617) 722-9888","106 Cambridge St","Boston","MA","02114","356"
"Season Restaurant","https://www.yellowpages.com/boston-ma/mip/season-restaurant-496648717?lid=496648717","(617) 523-4119","51 North St","Boston","MA","02109","357"
"Zumas Tex Mex Cafe","https://www.yellowpages.com/boston-ma/mip/zumas-tex-mex-cafe-534637930?lid=534637930","(617) 292-7695","7 Faneuil Hall Market Pl","Boston","MA","02109","358"
"Lechners Gourmet Restaurant","https://www.yellowpages.com/boston-ma/mip/lechners-gourmet-restaurant-10899636?lid=10899636","(617) 523-1016","21 Broad St","Boston","MA","02109","359"
"Casa Razdora","https://www.yellowpages.com/boston-ma/mip/casa-razdora-465647987?lid=465647987","(617) 338-6700","115 Water St","Boston","MA","02109","360"
"Bogie's Place","https://www.yellowpages.com/boston-ma/mip/bogies-place-481122078?lid=481122078","(617) 338-5333","21 Temple Pl","Boston","MA","02111","361"
"Restaurant At 33 Hancock","https://www.yellowpages.com/boston-ma/mip/restaurant-at-33-hancock-512112416?lid=512112416","(617) 288-3311","33 Hancock St","Boston","MA","02114","362"
"San Carlos Restaurant","https://www.yellowpages.com/boston-ma/mip/san-carlos-restaurant-519566893?lid=519566893","(617) 514-3590","14 Hancock St","Boston","MA","02114","363"
"Slugger's Dugout","https://www.yellowpages.com/boston-ma/mip/sluggers-dugout-467899766?lid=467899766","(617) 723-3635","254 Faneuil Hall Market Pl","Boston","MA","02109","364"
"Walrus & Carpenter","https://www.yellowpages.com/boston-ma/mip/walrus-carpenter-13039430?lid=13039430","(617) 742-1530","200 Faneuil Hall Market Pl","Boston","MA","02109","365"
"Cheers","https://www.yellowpages.com/boston-ma/mip/cheers-503120790?lid=503120790","(617) 227-0150","South  Quincy Market","Boston","MA","02109","366"
"Uno Due Go","https://www.yellowpages.com/boston-ma/mip/uno-due-go-469832004?lid=469832004","(617) 695-1834","52 Summer St","Boston","MA","02110","367"
"wagamama boston faneuil hall","https://www.yellowpages.com/boston-ma/mip/wagamama-boston-faneuil-hall-520881016?lid=520881016","(617) 742-9242","Quincy Market Building","Boston","MA","02109","368"
"Mother Juice","https://www.yellowpages.com/boston-ma/mip/mother-juice-521650298?lid=521650298","(617) 945-7357","100 Hanover St","Boston","MA","02108","369"
"The Ginger Man","https://www.yellowpages.com/boston-ma/mip/the-ginger-man-521792861?lid=521792861","(617) 936-4241","148 State St","Boston","MA","02109","370"
"Ruka Restobar","https://www.yellowpages.com/boston-ma/mip/ruka-restobar-532669384?lid=532669384","(617) 266-0102","505 Washington St","Boston","MA","02111","371"
"Wheelhouse","https://www.yellowpages.com/boston-ma/mip/wheelhouse-495887197?lid=495887197","(617) 422-0082","63 Broad St","Boston","MA","02109","372"
"Primos Restaurant","https://www.yellowpages.com/boston-ma/mip/primos-restaurant-482098661?lid=482098661","(617) 742-5458","28 Myrtle St","Boston","MA","02114","373"
"Battery Park Bar and Lounge","https://www.yellowpages.com/boston-ma/mip/battery-park-bar-and-lounge-456575878?lid=456575878","(617) 350-7275","33 Batterymarch St","Boston","MA","02110","374"
"Lanta Asian Cuisine","https://www.yellowpages.com/boston-ma/mip/lanta-asian-cuisine-483873461?lid=483873461","(617) 482-6046","38 Batterymarch St","Boston","MA","02110","375"
"Rock Sugar Thai Cafe","https://www.yellowpages.com/boston-ma/mip/rock-sugar-thai-cafe-450869907?lid=450869907","(617) 482-6046","38 Batterymarch St","Boston","MA","02110","376"
"Buca Inc","https://www.yellowpages.com/boston-ma/mip/buca-inc-527657954?lid=527657954","(617) 567-5228","8n West St","Boston","MA","02111","377"
"Bond At The Langham Boston","https://www.yellowpages.com/boston-ma/mip/bond-at-the-langham-boston-542024058?lid=542024058","(617) 956-8765","250 Franklin St","Boston","MA","02110","378"
"Back Deck","https://www.yellowpages.com/boston-ma/mip/back-deck-457051684?lid=457051684","(617) 670-0320","2 West St","Boston","MA","02111","379"
"Seoul","https://www.yellowpages.com/boston-ma/mip/seoul-504699654?lid=504699654","(617) 973-6680","156 Cambridge St","Boston","MA","02114","380"
"Portofino S Italian Kitchen","https://www.yellowpages.com/boston-ma/mip/portofino-s-italian-kitchen-480246671?lid=480246671","(617) 451-3816","71 Broad St","Boston","MA","02109","381"
"Greater Boston Chinese Golden Age Center Inc","https://www.yellowpages.com/boston-ma/mip/greater-boston-chinese-golden-age-center-inc-537353275?lid=537353275","(617) 589-0901","60 Joy St","Boston","MA","02114","382"
"Grainmaker","https://www.yellowpages.com/boston-ma/mip/grainmaker-541397394?lid=541397394","(617) 482-0131","91 Summer St","Boston","MA","02110","383"
"Attract China","https://www.yellowpages.com/boston-ma/mip/attract-china-503176735?lid=503176735","(857) 250-2870","35 India St","Boston","MA","02110","384"
"Wagamama Inc","https://www.yellowpages.com/boston-ma/mip/wagamama-inc-464829024?lid=464829024","(617) 778-2440","200 State St","Boston","MA","02109","385"
"Sal's Italian Trattoria","https://www.yellowpages.com/boston-ma/mip/sals-italian-trattoria-469437034?lid=469437034","(617) 542-5555","545 Washington St","Boston","MA","02111","386"
"Salvaore's Restaurant","https://www.yellowpages.com/boston-ma/mip/salvaores-restaurant-480199870?lid=480199870","(617) 542-5555","545 Washington St","Boston","MA","02111","387"
"Ted's Montana Grill","https://www.yellowpages.com/boston-ma/mip/teds-montana-grill-519885152?lid=519885152","(678) 710-9025","265 Franklin St","Boston","MA","02110","388"
"Genji Sushi Bar","https://www.yellowpages.com/boston-ma/mip/genji-sushi-bar-540622758?lid=540622758","(617) 723-0004","181 Cambridge St","Boston","MA","02114","389"
"Lao Xian Corporation","https://www.yellowpages.com/boston-ma/mip/lao-xian-corporation-480733847?lid=480733847","(617) 482-1888","86 Bedford St","Boston","MA","02111","390"
"Gene's Chinese Flatbread Cafe","https://www.yellowpages.com/boston-ma/mip/genes-chinese-flatbread-cafe-520812751?lid=520812751","(617) 482-1888","86 Bedford St","Boston","MA","02111","391"
"Sa Pa","https://www.yellowpages.com/boston-ma/mip/sa-pa-479739346?lid=479739346","(617) 303-7000","92 Bedford St","Boston","MA","02111","392"
"All Star Pizza Bar","https://www.yellowpages.com/boston-ma/mip/all-star-pizza-bar-533410491?lid=533410491","(857) 991-1890","204 Cambridge St","Boston","MA","02114","393"
"Ding Ho","https://www.yellowpages.com/boston-ma/mip/ding-ho-538669922?lid=538669922","(617) 426-3126","88 Harrison Avenue Ext","Boston","MA","02111","394"
"Apollo Restaurant","https://www.yellowpages.com/boston-ma/mip/apollo-restaurant-538704874?lid=538704874","(617) 423-3888","84 Harrison Avenue Ext","Boston","MA","02111","395"
"Hong Kong Eatery","https://www.yellowpages.com/boston-ma/mip/hong-kong-eatery-404833?lid=404833","(617) 423-0838","79 Harrison Avenue Ext","Boston","MA","02111","396"
"Chinese Economic Development Council","https://www.yellowpages.com/boston-ma/mip/chinese-economic-development-council-538678732?lid=538678732","(617) 482-1011","65 Harrison Avenue Ext","Boston","MA","02111","397"
"Depasquales Homemade Pasta Shoppe","https://www.yellowpages.com/boston-ma/mip/depasquales-homemade-pasta-shoppe-510760837?lid=510760837","(617) 248-9629","64 Cross St","Boston","MA","02113","398"
"Legal Sea Foods","https://www.yellowpages.com/boston-ma/mip/legal-sea-foods-529973174?lid=529973174","(617) 692-8888","558 Washington St","Boston","MA","02111","399"
"Dumpling King","https://www.yellowpages.com/boston-ma/mip/dumpling-king-538684392?lid=538684392","(617) 482-8888","40 Harrison Avenue Ext","Boston","MA","02111","400"
"Vito's Tavern","https://www.yellowpages.com/boston-ma/mip/vitos-tavern-452821916?lid=452821916","(857) 277-0229","54 Salem St","Boston","MA","02113","401"
"Society On High","https://www.yellowpages.com/boston-ma/mip/society-on-high-480963809?lid=480963809","(857) 350-4555","99 High St","Boston","MA","02110","402"
"Restaurantstoyoucom","https://www.yellowpages.com/boston-ma/mip/restaurantstoyoucom-481302343?lid=481302343","(617) 500-4494","125 High St","Boston","MA","02110","403"
"Broad Street Riot","https://www.yellowpages.com/boston-ma/mip/broad-street-riot-26126260?lid=26126260","(857) 317-2796","131 Broad St","Boston","MA","02110","404"
"Fins Sushi","https://www.yellowpages.com/boston-ma/mip/fins-sushi-466491523?lid=466491523","(617) 227-2277","240 Cambridge St","Boston","MA","02114","405"
"Finch","https://www.yellowpages.com/boston-ma/mip/finch-475280478?lid=475280478","(617) 624-0202","107 Merrimac St","Boston","MA","02114","406"
"Cafe Nuovo","https://www.yellowpages.com/boston-ma/mip/cafe-nuovo-460839519?lid=460839519","(857) 753-4615","76 Salem St","Boston","MA","02113","407"
"Siam Bistro","https://www.yellowpages.com/boston-ma/mip/siam-bistro-456104341?lid=456104341","(617) 210-7953","151 Pearl St","Boston","MA","02110","408"
"T.G.I. Friday's","https://www.yellowpages.com/boston-ma/mip/t-g-i-fridays-13888151?lid=13888151","(617) 557-4575","149 Staniford St","Boston","MA","02114","409"
"Thinking Cup","https://www.yellowpages.com/boston-ma/mip/thinking-cup-504700441?lid=504700441","(857) 233-5277","236 Hanover St","Boston","MA","02113","410"
"Crudo","https://www.yellowpages.com/boston-ma/mip/crudo-515505785?lid=515505785","(617) 367-6500","78 Salem St","Boston","MA","02113","411"
"Trattoria Scalinatella","https://www.yellowpages.com/boston-ma/mip/trattoria-scalinatella-474966790?lid=474966790","(617) 742-1276","253 Hanover St","Boston","MA","02113","412"
"Spanguolo Cafe","https://www.yellowpages.com/boston-ma/mip/spanguolo-cafe-455807841?lid=455807841","(617) 722-8271","240 Hanover St","Boston","MA","02113","413"
"State Street Provisions","https://www.yellowpages.com/boston-ma/mip/state-street-provisions-532968135?lid=532968135","(617) 863-8363","255 State St","Boston","MA","02109","414"
"Mercato Del Mare","https://www.yellowpages.com/boston-ma/mip/mercato-del-mare-2281361?lid=2281361","(857) 362-7477","99 Salem St","Boston","MA","02113","415"
"Il Bocconcino","https://www.yellowpages.com/boston-ma/mip/il-bocconcino-1839698?lid=1839698","(617) 720-0692","272 Cambridge St","Boston","MA","02114","416"
"Quattro","https://www.yellowpages.com/boston-ma/mip/quattro-481142279?lid=481142279","(617) 720-0444","266 Hanover St","Boston","MA","02113","417"
"Sfizi Italian Kitchen","https://www.yellowpages.com/boston-ma/mip/sfizi-italian-kitchen-517159135?lid=517159135","(857) 350-3105","135 Richmond St","Boston","MA","02109","418"
"Monica's Restaurant","https://www.yellowpages.com/boston-ma/mip/monicas-restaurant-7997005?lid=7997005","(617) 227-0311","143 Richmond St","Boston","MA","02109","419"
"Sip Cafe","https://www.yellowpages.com/boston-ma/mip/sip-cafe-1332998?lid=1332998","(617) 338-3080","0 Post Office Sq","Boston","MA","02109","420"
"Boston & Maine Fish Co","https://www.yellowpages.com/boston-ma/mip/boston-maine-fish-co-464935149?lid=464935149","(617) 723-4111","200 Faneuil Hall Market Pl","Boston","MA","02109","421"
"wagamama","https://www.yellowpages.com/boston-ma/mip/wagamama-538328278?lid=538328278","(617) 742-9242","4 Quincy Market","Boston","MA","02109","422"
"Moon Villa Restaurant","https://www.yellowpages.com/boston-ma/mip/moon-villa-restaurant-6103011?lid=6103011","(617) 423-2061","15 Edinboro St","Boston","MA","02111","423"
"West End Dining","https://www.yellowpages.com/boston-ma/mip/west-end-dining-484886874?lid=484886874","(617) 227-9100","65 Causeway St","Boston","MA","02114","424"
"Rebecca's Cafe","https://www.yellowpages.com/boston-ma/mip/rebeccas-cafe-534600253?lid=534600253","(857) 383-3464","1 Financial Ctr 675 Atlantic Avenue, 2nd Floor","Boston","MA","02110","425"
"Beneventos","https://www.yellowpages.com/boston-ma/mip/beneventos-456638347?lid=456638347","(617) 523-4111","111 Salem St","Boston","MA","02113","426"
"Cosi","https://www.yellowpages.com/boston-ma/mip/cosi-469482379?lid=469482379","(617) 951-9999","2 South Sta Ste 182","Boston","MA","02110","427"
"Rigoletto","https://www.yellowpages.com/boston-ma/mip/rigoletto-480971050?lid=480971050","(857) 350-3402","115 Salem St","Boston","MA","02113","428"
"Wow Barbecue","https://www.yellowpages.com/boston-ma/mip/wow-barbecue-482515151?lid=482515151","(508) 826-3192","2 Boylston St","Boston","MA","02116","429"
"Mangia Mangia","https://www.yellowpages.com/boston-ma/mip/mangia-mangia-3006110?lid=3006110","(617) 523-1768","147 Endicott St","Boston","MA","02113","430"
"Avana Sushi","https://www.yellowpages.com/boston-ma/mip/avana-sushi-472936461?lid=472936461","(617) 457-0888","42 Beach St","Boston","MA","02111","431"
"Sam Hop","https://www.yellowpages.com/boston-ma/mip/sam-hop-474978150?lid=474978150","(617) 482-1188","44 Beach St Ste 2111","Boston","MA","02111","432"
"Buccellati Inc","https://www.yellowpages.com/boston-ma/mip/buccellati-inc-492927770?lid=492927770","(617) 523-0077","3 North Sq","Boston","MA","02113","433"
"Five Spices House","https://www.yellowpages.com/boston-ma/mip/five-spices-house-505247536?lid=505247536","(617) 574-8888","58 Beach St","Boston","MA","02111","434"
"Little Lamb Restaurant","https://www.yellowpages.com/boston-ma/mip/little-lamb-restaurant-480978997?lid=480978997","(857) 233-2200","326 Cambridge St","Boston","MA","02114","435"
"Coulouras Lunch Co Inc","https://www.yellowpages.com/boston-ma/mip/coulouras-lunch-co-inc-484290291?lid=484290291","(617) 523-2727","316 Cambridge St","Boston","MA","02114","436"
"China King","https://www.yellowpages.com/boston-ma/mip/china-king-472139806?lid=472139806","(617) 542-1763","60 Beach St","Boston","MA","02111","437"
"Ward 8","https://www.yellowpages.com/boston-ma/mip/ward-8-496044937?lid=496044937","(617) 823-4478","90 N Washington St","Boston","MA","02114","438"
"Pasta Pomodoro","https://www.yellowpages.com/boston-ma/mip/pasta-pomodoro-465521726?lid=465521726","(617) 742-0809","120 Salem St","Boston","MA","02113","439"
"Hot Pot Buffet","https://www.yellowpages.com/boston-ma/mip/hot-pot-buffet-456990305?lid=456990305","(617) 338-0808","70 Beach St Ste 1","Boston","MA","02111","440"
"China House","https://www.yellowpages.com/boston-ma/mip/china-house-6397736?lid=6397736","(617) 723-9888","331 Hanover St","Boston","MA","02113","441"
"Bel Ari Italian Modern","https://www.yellowpages.com/boston-ma/mip/bel-ari-italian-modern-506596965?lid=506596965","(617) 259-1560","107 South St","Boston","MA","02111","442"
"Fin's Japanese Sushi & Grill","https://www.yellowpages.com/boston-ma/mip/fins-japanese-sushi-grill-483876888?lid=483876888","(617) 423-4888","62 Boylston St","Boston","MA","02116","443"
"Fugi Restaurant Corp","https://www.yellowpages.com/boston-ma/mip/fugi-restaurant-corp-459336598?lid=459336598","(617) 399-6228","27 Beach St","Boston","MA","02111","444"
"Boston Chinese Freemasons","https://www.yellowpages.com/boston-ma/mip/boston-chinese-freemasons-527475645?lid=527475645","(781) 964-5189","23 Beach St Ste 4","Boston","MA","02111","445"
"Great Taste Bakery & Restaurant","https://www.yellowpages.com/boston-ma/mip/great-taste-bakery-restaurant-11821618?lid=11821618","(617) 426-8899","63 Beach St","Boston","MA","02111","446"
"Xinh Xinh Restaurant","https://www.yellowpages.com/boston-ma/mip/xinh-xinh-restaurant-1656291?lid=1656291","(617) 422-0501","7 Beach St","Boston","MA","02111","447"
"Ct Sweet Kingdom","https://www.yellowpages.com/boston-ma/mip/ct-sweet-kingdom-521878119?lid=521878119","(617) 338-8885","15 Beach St Apt 1","Boston","MA","02111","448"
"Monica's Mercato","https://www.yellowpages.com/boston-ma/mip/monicas-mercato-18352419?lid=18352419","(617) 742-4101","130 Salem St","Boston","MA","02113","449"
"Sorelle Cafe","https://www.yellowpages.com/boston-ma/mip/sorelle-cafe-469153471?lid=469153471","(617) 426-5475","280 Congress St","Boston","MA","02210","450"
"Top Catch at Joe’s Waterfront","https://www.yellowpages.com/boston-ma/mip/top-catch-at-joes-waterfront-527949331?lid=527949331","(617) 367-8700","100 Atlantic Ave","Boston","MA","02110","451"
"Little Lamb Hot Pot Restaurant","https://www.yellowpages.com/boston-ma/mip/little-lamb-hot-pot-restaurant-544932336?lid=544932336","(857) 277-1000","695 Washington St","Boston","MA","02111","452"
"Trattoria Andiamo","https://www.yellowpages.com/boston-ma/mip/trattoria-andiamo-472944432?lid=472944432","(617) 695-3775","104 South St","Boston","MA","02111","453"
"Golden Palace Restaurant","https://www.yellowpages.com/boston-ma/mip/golden-palace-restaurant-467894952?lid=467894952","(617) 423-4565","14 Tyler St","Boston","MA","02111","454"
"New Saigon Sandwich","https://www.yellowpages.com/boston-ma/mip/new-saigon-sandwich-5448158?lid=5448158","(617) 542-6296","696 Washington St","Boston","MA","02111","455"
"Irashai Sushi","https://www.yellowpages.com/boston-ma/mip/irashai-sushi-533406223?lid=533406223","(617) 350-6888","8 Kneeland St","Boston","MA","02111","456"
"Otttavios Restaurant & Catering","https://www.yellowpages.com/boston-ma/mip/otttavios-restaurant-catering-5163886?lid=5163886","(800) 339-6564","257 North St","Boston","MA","02113","457"
"BLR by Shojo","https://www.yellowpages.com/boston-ma/mip/blr-by-shojo-530184214?lid=530184214","(617) 338-4988","13A Hudson St","Boston","MA","02111","458"
"The Little Kitchen","https://www.yellowpages.com/boston-ma/mip/the-little-kitchen-531715537?lid=531715537","(617) 426-8686","22 Kneeland St","Boston","MA","02111","459"
"Tata Seafood","https://www.yellowpages.com/boston-ma/mip/tata-seafood-504986137?lid=504986137","(617) 338-8770","25 Tyler St","Boston","MA","02111","460"
"Apollo Grill & Sushi","https://www.yellowpages.com/boston-ma/mip/apollo-grill-sushi-471099989?lid=471099989","(617) 423-3888","84 Harrison Ave","Boston","MA","02111","461"
"Regina Pizzeria","https://www.yellowpages.com/boston-ma/mip/regina-pizzeria-483852584?lid=483852584","(617) 261-6600","700 Atlantic Ave","Boston","MA","02111","462"
"Bangkok Hut Inc","https://www.yellowpages.com/boston-ma/mip/bangkok-hut-inc-26128877?lid=26128877","(617) 338-5600","63 Stuart St","Boston","MA","02116","463"
"Tutto Italiano","https://www.yellowpages.com/boston-ma/mip/tutto-italiano-497280141?lid=497280141","(617) 557-4004","20 Fleet St","Boston","MA","02113","464"
"Genki Ya","https://www.yellowpages.com/boston-ma/mip/genki-ya-480176590?lid=480176590","(617) 338-8686","232 Tremont St","Boston","MA","02116","465"
"The Upper Crust Pizzeria","https://www.yellowpages.com/boston-ma/mip/the-upper-crust-pizzeria-8209761?lid=8209761","(617) 367-0066","245 Summer St","Boston","MA","02210","466"
"Greater Boston Chinese Golden","https://www.yellowpages.com/boston-ma/mip/greater-boston-chinese-golden-26236377?lid=26236377","(617) 357-0226","75 Kneeland St Ste 204","Boston","MA","02111","467"
"Osaka Express","https://www.yellowpages.com/boston-ma/mip/osaka-express-20663996?lid=20663996","(617) 742-8888","8 Park Plz","Boston","MA","02116","468"
"Herrera's Mexican Grill","https://www.yellowpages.com/boston-ma/mip/herreras-mexican-grill-452823112?lid=452823112","(617) 720-4371","8 Park Plz","Boston","MA","02116","469"
"Iron Wok","https://www.yellowpages.com/boston-ma/mip/iron-wok-466693989?lid=466693989","(617) 742-2888","8 Park Plz","Boston","MA","02116","470"
"Cheeseboy","https://www.yellowpages.com/boston-ma/mip/cheeseboy-480196573?lid=480196573","(781) 843-7474","720 Atlantic Ave","Boston","MA","02111","471"
"Cajun & Grill","https://www.yellowpages.com/boston-ma/mip/cajun-grill-6366475?lid=6366475","(617) 439-8687","720 Atlantic Ave","Boston","MA","02111","472"
"Anthony Curtis Gallery","https://www.yellowpages.com/boston-ma/mip/anthony-curtis-gallery-20349831?lid=20349831","(617) 988-8119","186 South St","Boston","MA","02111","473"
"Sei Stelle","https://www.yellowpages.com/boston-ma/mip/sei-stelle-471884492?lid=471884492","(781) 588-3911","289 Causeway St","Boston","MA","02114","474"
"Cosi","https://www.yellowpages.com/boston-ma/mip/cosi-534824135?lid=534824135","(617) 723-4447","53 Hull Street Ct","Boston","MA","02113","475"
"Nico","https://www.yellowpages.com/boston-ma/mip/nico-473086058?lid=473086058","(617) 742-0404","417 Hanover St","Boston","MA","02113","476"
"Caffe Lil Italy","https://www.yellowpages.com/boston-ma/mip/caffe-lil-italy-4769169?lid=4769169","(617) 227-1303","178 Salem St","Boston","MA","02113","477"
"Il Molo","https://www.yellowpages.com/boston-ma/mip/il-molo-523915994?lid=523915994","(857) 277-1895","326 Commercial St","Boston","MA","02109","478"
"Royal Palace","https://www.yellowpages.com/boston-ma/mip/royal-palace-459675832?lid=459675832","(617) 542-1100","70 Tyler St","Boston","MA","02111","479"
"Joey And Maria's Comedy Italian Wedding","https://www.yellowpages.com/boston-ma/mip/joey-and-marias-comedy-italian-wedding-1202633?lid=1202633","(800) 944-5639","275 Tremont St","Boston","MA","02116","480"
"Jooksing Cafe","https://www.yellowpages.com/boston-ma/mip/jooksing-cafe-512927219?lid=512927219","(617) 426-2828","177 Harrison Ave","Boston","MA","02111","481"
"Off The Common","https://www.yellowpages.com/boston-ma/mip/off-the-common-521161765?lid=521161765","(617) 457-2330","50 Park Plz","Boston","MA","02116","482"
"Doretta Taverna & Raw Bar","https://www.yellowpages.com/boston-ma/mip/doretta-taverna-raw-bar-517135917?lid=517135917","(617) 422-0008","79 Park Plz","Boston","MA","02116","483"
"Champagne Sunday Brunch","https://www.yellowpages.com/boston-ma/mip/champagne-sunday-brunch-524410347?lid=524410347","(617) 598-5255","Taj Boston 15 Arlington Street","Boston","MA","02116","484"
"Dedo Lounge & Bistro","https://www.yellowpages.com/boston-ma/mip/dedo-lounge-bistro-13873974?lid=13873974","(617) 338-9999","69 Church St","Boston","MA","02116","485"
"Perkins Restaurant & Bakery","https://www.yellowpages.com/boston-ma/mip/perkins-restaurant-bakery-472446695?lid=472446695","(617) 757-7300","44 Farnsworth St","Boston","MA","02210","486"
"Cosi","https://www.yellowpages.com/boston-ma/mip/cosi-505126664?lid=505126664","(857) 350-3119","399 Boylston St","Boston","MA","02116","487"
"Globe Bar And Cafe","https://www.yellowpages.com/boston-ma/mip/globe-bar-and-cafe-543373886?lid=543373886","(617) 778-6993","384 Boylston St","Boston","MA","02116","488"
"Samurai Express","https://www.yellowpages.com/boston-ma/mip/samurai-express-481120856?lid=481120856","(617) 431-2282","31 Saint James Ave","Boston","MA","02116","489"
"Loop Pizza Grill","https://www.yellowpages.com/boston-ma/mip/loop-pizza-grill-519935552?lid=519935552","(904) 268-2609","281 Summer St","Boston","MA","02210","490"
"Green China","https://www.yellowpages.com/boston-ma/mip/green-china-16886831?lid=16886831","(617) 351-2411","45 Newbury St Ste 205","Boston","MA","02116","491"
"Bastille Kitchen","https://www.yellowpages.com/boston-ma/mip/bastille-kitchen-504041330?lid=504041330","(617) 556-8000","49 Melcher St Ste 1","Boston","MA","02210","492"
"Buco Trattoria","https://www.yellowpages.com/boston-ma/mip/buco-trattoria-516688481?lid=516688481","(617) 982-7949","300 Summer St","Boston","MA","02210","493"
"Blue Dragon","https://www.yellowpages.com/boston-ma/mip/blue-dragon-480982511?lid=480982511","(617) 338-8585","324 A St","Boston","MA","02210","494"
"Rose Garden","https://www.yellowpages.com/boston-ma/mip/rose-garden-480980073?lid=480980073","(617) 421-1239","43 Commonwealth Ave","Boston","MA","02116","495"
"wagamama","https://www.yellowpages.com/boston-ma/mip/wagamama-502830643?lid=502830643","(617) 778-2440","374 Congress St Ste 502","Boston","MA","02210","496"
"City Tap","https://www.yellowpages.com/boston-ma/mip/city-tap-531563365?lid=531563365","(617) 904-2748","10 Boston Wharf Rd","Boston","MA","02210","497"
"75 On Courthouse Square","https://www.yellowpages.com/boston-ma/mip/75-on-courthouse-square-541857766?lid=541857766","(617) 728-4701","60 Seaport Blvd","Boston","MA","02210","498"
"King's Bowl-Seaport","https://www.yellowpages.com/boston-ma/mip/kings-bowl-seaport-542481137?lid=542481137","(617) 401-0025","60 Seaport Blvd","Boston","MA","02210","499"
"YO! Sushi","https://www.yellowpages.com/boston-ma/mip/yo-sushi-531699795?lid=531699795","(857) 400-0797","79 Seaport Blvd","Boston","MA","02210","500"
"Precinct Kitchen + Bar","https://www.yellowpages.com/boston-ma/mip/precinct-kitchen-bar-496511995?lid=496511995","(617) 532-3827","154 Berkeley St","Boston","MA","02116","501"
"Yoki Express","https://www.yellowpages.com/boston-ma/mip/yoki-express-531673910?lid=531673910","(857) 263-7418","101 Seaport Blvd","Boston","MA","02210","502"
"Water Cafe","https://www.yellowpages.com/boston-ma/mip/water-cafe-480204101?lid=480204101","(617) 478-3291","100 Northern Ave","Boston","MA","02210","503"
"Shino Express Sushi","https://www.yellowpages.com/boston-ma/mip/shino-express-sushi-460446243?lid=460446243","(617) 262-4530","108 Newbury St","Boston","MA","02116","504"
"Larry J's BBQ Cafe","https://www.yellowpages.com/boston-ma/mip/larry-js-bbq-cafe-480147990?lid=480147990","(617) 348-9800","600 D St","Boston","MA","02210","505"
"Ocean Prime","https://www.yellowpages.com/boston-ma/mip/ocean-prime-519646628?lid=519646628","(617) 670-0986","100 Pier 4 Blvd","Boston","MA","02210","506"
"Kikka Sushi Noodle House","https://www.yellowpages.com/boston-ma/mip/kikka-sushi-noodle-house-540618208?lid=540618208","(617) 904-1000","348 Harrison Ave","Boston","MA","02118","507"
"The Fish Shack","https://www.yellowpages.com/boston-ma/mip/the-fish-shack-540622959?lid=540622959","(617) 904-1000","348 Harrison Ave","Boston","MA","02118","508"
"Friendly Toast","https://www.yellowpages.com/boston-ma/mip/friendly-toast-521890582?lid=521890582","(617) 456-7849","35 Stanhope St","Boston","MA","02116","509"
"Yamoto","https://www.yellowpages.com/boston-ma/mip/yamoto-512934308?lid=512934308","(857) 250-4473","545 Boylston St","Boston","MA","02116","510"
"Fuji at Ink Block","https://www.yellowpages.com/boston-ma/mip/fuji-at-ink-block-530140898?lid=530140898","(617) 936-3282","352b Harrison Ave","Boston","MA","02118","511"
"Lion's Tail","https://www.yellowpages.com/boston-ma/mip/lions-tail-533417958?lid=533417958","(857) 239-9276","354 Harrison Ave","Boston","MA","02118","512"
"Mrs B's Cafe","https://www.yellowpages.com/boston-ma/mip/mrs-bs-cafe-465614981?lid=465614981","(617) 737-1526","20 Channel Ctr St Fl 1","Boston","MA","02210","513"
"Dig Inn- Boylston","https://www.yellowpages.com/boston-ma/mip/dig-inn-boylston-525846320?lid=525846320","(617) 904-3711","557 Boylston St","Boston","MA","02116","514"
"Hard Rock Cafe International Inc","https://www.yellowpages.com/boston-ma/mip/hard-rock-cafe-international-inc-470071292?lid=470071292","(617) 424-7625","131 Clarendon St","Boston","MA","02116","515"
"The Whiskey Priest","https://www.yellowpages.com/boston-ma/mip/the-whiskey-priest-456102248?lid=456102248","(617) 426-8111","150 Northern Ave","Boston","MA","02210","516"
"Freshii","https://www.yellowpages.com/boston-ma/mip/freshii-512311289?lid=512311289","(857) 496-0656","1 Iron St","Boston","MA","02210","517"
"Saltie Girl","https://www.yellowpages.com/boston-ma/mip/saltie-girl-527257851?lid=527257851","(617) 267-0691","281 Dartmouth St","Boston","MA","02116","518"
"Freshii","https://www.yellowpages.com/boston-ma/mip/freshii-496820466?lid=496820466","(857) 496-0656","1 Channel Ctr St","Boston","MA","02210","519"
"Freshii","https://www.yellowpages.com/boston-ma/mip/freshii-504981915?lid=504981915","(857) 277-0200","185 Dartmouth St","Boston","MA","02116","520"
"El Triunfo","https://www.yellowpages.com/boston-ma/mip/el-triunfo-455936161?lid=455936161","(617) 542-8499","147 E Berkeley St","Boston","MA","02118","521"
"B.Good","https://www.yellowpages.com/boston-ma/mip/b-good-497703919?lid=497703919","(617) 927-8333","655 Boylston St","Boston","MA","02116","522"
"Shabu Maru","https://www.yellowpages.com/boston-ma/mip/shabu-maru-503182694?lid=503182694","(617) 437-8888","10 Huntington Ave","Boston","MA","02116","523"
"Barcelona Wine Bar & Restaurant","https://www.yellowpages.com/boston-ma/mip/barcelona-wine-bar-restaurant-526556642?lid=526556642","(617) 266-2600","525 Tremont St","Boston","MA","02116","524"
"Fresh City","https://www.yellowpages.com/boston-ma/mip/fresh-city-4313118?lid=4313118","(617) 443-0962","2 Seaport Ln Fl 2","Boston","MA","02210","525"
"Sebastians Novel & Map Room Cafe","https://www.yellowpages.com/boston-ma/mip/sebastians-novel-map-room-cafe-451340564?lid=451340564","(617) 385-5660","700 Boylston St","Boston","MA","02116","526"
"Azure Restaurant","https://www.yellowpages.com/boston-ma/mip/azure-restaurant-467924335?lid=467924335","(617) 933-4800","65 Exeter St","Boston","MA","02116","527"
"Fuji Food","https://www.yellowpages.com/boston-ma/mip/fuji-food-481145994?lid=481145994","(617) 936-4934","1248 Washington St","Boston","MA","02118","528"
"Tirrell Seafood and Shellfish","https://www.yellowpages.com/boston-ma/mip/tirrell-seafood-and-shellfish-514375462?lid=514375462","(617) 261-3936","24 Fish Pier","Boston","MA","02210","529"
"Mul's Diner","https://www.yellowpages.com/boston-ma/mip/muls-diner-10163977?lid=10163977","(617) 268-5748","75 W Broadway","Boston","MA","02127","530"
"Boston Restaurant Group","https://www.yellowpages.com/boston-ma/mip/boston-restaurant-group-12322886?lid=12322886","(617) 587-9800","729 Boylston St","Boston","MA","02116","531"
"Restauraunt Opportunity Ctr","https://www.yellowpages.com/boston-ma/mip/restauraunt-opportunity-ctr-483860885?lid=483860885","(857) 233-2271","729 Boylston St","Boston","MA","02116","532"
"Umai","https://www.yellowpages.com/boston-ma/mip/umai-465391927?lid=465391927","(617) 262-2228","224 Newbury St","Boston","MA","02116","533"
"M.C. Spiedo","https://www.yellowpages.com/boston-ma/mip/m-c-spiedo-495323723?lid=495323723","(617) 476-5606","606 Congress St","Boston","MA","02210","534"
"Sapore Ristorante & Bar","https://www.yellowpages.com/boston-ma/mip/sapore-ristorante-bar-527182392?lid=527182392","(617) 476-5606","606 Congress St","Boston","MA","02210","535"
"Little Panda","https://www.yellowpages.com/boston-ma/mip/little-panda-543494434?lid=543494434","(857) 250-4080","51 Waltham St","Boston","MA","02118","536"
"Yakitori Zai Restaurant","https://www.yellowpages.com/boston-ma/mip/yakitori-zai-restaurant-470631243?lid=470631243","(857) 350-4450","315 Shawmut Ave","Boston","MA","02118","537"
"El Rinconcito Restaurante","https://www.yellowpages.com/boston-ma/mip/el-rinconcito-restaurante-500047511?lid=500047511","(617) 568-0028","226 Sumner St","Boston","MA","02128","538"
"Del Friscos of Boston Ricky","https://www.yellowpages.com/boston-ma/mip/del-friscos-of-boston-ricky-509250670?lid=509250670","(617) 951-1368","250 Northern Ave","Boston","MA","02210","539"
"Temazcal Tequila Cantina","https://www.yellowpages.com/boston-ma/mip/temazcal-tequila-cantina-465627043?lid=465627043","(617) 439-3502","250 Northern Ave","Boston","MA","02210","540"
"Xhale","https://www.yellowpages.com/boston-ma/mip/xhale-468341836?lid=468341836","(617) 536-9000","47 Huntington Ave","Boston","MA","02116","541"
"Lechners Gourmet Restaurant","https://www.yellowpages.com/boston-ma/mip/lechners-gourmet-restaurant-10899636?lid=10899636","(617) 523-1016","21 Broad St","Boston","MA","02109","542"
"Depasquales Homemade Pasta Shoppe","https://www.yellowpages.com/boston-ma/mip/depasquales-homemade-pasta-shoppe-510760837?lid=510760837","(617) 248-9629","64 Cross St","Boston","MA","02113","543"
"Jmp Food Hut","https://www.yellowpages.com/boston-ma/mip/jmp-food-hut-460218147?lid=460218147","(617) 787-9700","1095 Commonwealth Ave","Boston","MA","02215","544"
"Thai Village","https://www.yellowpages.com/boston-ma/mip/thai-village-15220885?lid=15220885","(617) 536-6548","592 Tremont St","Boston","MA","02118","545"
"Game On","https://www.yellowpages.com/boston-ma/mip/game-on-15801449?lid=15801449","(617) 567-3090","Airport Road Terminal A Satellite Concourse Gate A-15","Boston","MA","02128","546"
"68 Chinese Best Food","https://www.yellowpages.com/boston-ma/mip/68-chinese-best-food-500058882?lid=500058882","(617) 338-2137","48 Winter St","Boston","MA","02108","547"
"Mercato Del Mare","https://www.yellowpages.com/boston-ma/mip/mercato-del-mare-2281361?lid=2281361","(857) 362-7477","99 Salem St","Boston","MA","02113","548"
"Rebecca's Cafe","https://www.yellowpages.com/boston-ma/mip/rebeccas-cafe-534600253?lid=534600253","(857) 383-3464","1 Financial Ctr 675 Atlantic Avenue, 2nd Floor","Boston","MA","02110","549"
"Cosi","https://www.yellowpages.com/boston-ma/mip/cosi-469482379?lid=469482379","(617) 951-9999","2 South Sta Ste 182","Boston","MA","02110","550"
"Tutto Italiano","https://www.yellowpages.com/boston-ma/mip/tutto-italiano-497280141?lid=497280141","(617) 557-4004","20 Fleet St","Boston","MA","02113","551"
"Joey And Maria's Comedy Italian Wedding","https://www.yellowpages.com/boston-ma/mip/joey-and-marias-comedy-italian-wedding-1202633?lid=1202633","(800) 944-5639","275 Tremont St","Boston","MA","02116","552"
"75 On Courthouse Square","https://www.yellowpages.com/boston-ma/mip/75-on-courthouse-square-541857766?lid=541857766","(617) 728-4701","60 Seaport Blvd","Boston","MA","02210","553"
"Hidden Kitchen","https://www.yellowpages.com/boston-ma/mip/hidden-kitchen-1377374?lid=1377374","(617) 426-1544","535 Albany St Ste 4","Boston","MA","02118","554"
"Nagle John","https://www.yellowpages.com/boston-ma/mip/nagle-john-451804554?lid=451804554","(617) 542-9418","306 Northern Ave Ste 3","Boston","MA","02210","555"
"Dorset Hall","https://www.yellowpages.com/boston-ma/mip/dorset-hall-521936382?lid=521936382","(617) 533-7114","367 Neponset Ave","Boston","MA","02122","556"
"Pairings","https://www.yellowpages.com/boston-ma/mip/pairings-451380237?lid=451380237","(617) 262-3473","50 Park Plz","Boston","MA","02116","557"
"Master Wok","https://www.yellowpages.com/boston-ma/mip/master-wok-6777342?lid=6777342","(617) 737-2044","650 Atlantic Ave","Boston","MA","02210","558"
"Fresh City","https://www.yellowpages.com/boston-ma/mip/fresh-city-14731535?lid=14731535","(617) 561-4700","100 Terminal E","Boston","MA","02128","559"
"Cactus Club Restaurant & Bar","https://www.yellowpages.com/boston-ma/mip/cactus-club-restaurant-bar-16437409?lid=16437409","(617) 236-0200","939 Boylston St","Boston","MA","02115","560"
"Via Matta","https://www.yellowpages.com/boston-ma/mip/via-matta-458921857?lid=458921857","(617) 422-0008","79 Park Plz","Boston","MA","02116","561"
"An Tain","https://www.yellowpages.com/boston-ma/mip/an-tain-9084232?lid=9084232","(617) 426-1870","31 India St","Boston","MA","02110","562"
"Five North Square","https://www.yellowpages.com/boston-ma/mip/five-north-square-465654055?lid=465654055","(617) 720-1050","5 North Sq","Boston","MA","02113","563"
"Union","https://www.yellowpages.com/boston-ma/mip/union-7997861?lid=7997861","(617) 423-0555","1357 Washington St","Boston","MA","02118","564"
"Morton's The Steakhouse","https://www.yellowpages.com/boston-ma/mip/mortons-the-steakhouse-22589061?lid=22589061","(617) 266-5858","699 Boylston St","Boston","MA","02116","565"
"Canestaro Pizzeria","https://www.yellowpages.com/boston-ma/mip/canestaro-pizzeria-4081730?lid=4081730","(617) 266-8997","16 Peterborough St","Boston","MA","02215","566"
"Hillstone Restaurant","https://www.yellowpages.com/boston-ma/mip/hillstone-restaurant-472769478?lid=472769478","(617) 573-9777","60 State St Ste P","Boston","MA","02109","567"
"Kingston Station","https://www.yellowpages.com/boston-ma/mip/kingston-station-475831952?lid=475831952","(617) 482-6282","92 Bedford St","Boston","MA","02111","568"
"Haru","https://www.yellowpages.com/boston-ma/mip/haru-459581731?lid=459581731","(617) 536-0770","55 Huntington Ave","Boston","MA","02199","569"
"Barlola","https://www.yellowpages.com/boston-ma/mip/barlola-1380567?lid=1380567","(617) 266-1122","160 Commonwealth Ave","Boston","MA","02116","570"
"Panificio","https://www.yellowpages.com/boston-ma/mip/panificio-14368652?lid=14368652","(617) 778-7769","61 Massachusetts Ave","Boston","MA","02115","571"
"Asta","https://www.yellowpages.com/boston-ma/mip/asta-479708841?lid=479708841","(617) 585-9575","47 Massachusetts Ave","Boston","MA","02115","572"
"Cornish Pasty Co.","https://www.yellowpages.com/boston-ma/mip/cornish-pasty-co-530043729?lid=530043729","(857) 250-4497","51 Massachusetts Ave","Boston","MA","02115","573"
"Uni Sashimi Bar","https://www.yellowpages.com/boston-ma/mip/uni-sashimi-bar-466974152?lid=466974152","(617) 536-7200","370 Commonwealth Ave","Boston","MA","02215","574"
"Render Coffee","https://www.yellowpages.com/boston-ma/mip/render-coffee-469398710?lid=469398710","(617) 262-4142","563 Columbus Ave","Boston","MA","02118","575"
"J's Tomodachi Sushi","https://www.yellowpages.com/boston-ma/mip/js-tomodachi-sushi-21152586?lid=21152586","(617) 236-1464","201 Massachusetts Ave","Boston","MA","02115","576"
"Hakata Ramen","https://www.yellowpages.com/boston-ma/mip/hakata-ramen-543893306?lid=543893306","(857) 350-3923","173 Massachusetts Ave","Boston","MA","02115","577"
"Pho Basil","https://www.yellowpages.com/boston-ma/mip/pho-basil-22312950?lid=22312950","(617) 262-5377","177 Massachusetts Ave","Boston","MA","02115","578"
"Dumpling Palace","https://www.yellowpages.com/boston-ma/mip/dumpling-palace-507774940?lid=507774940","(617) 266-8888","179 Massachusetts Ave","Boston","MA","02115","579"
"Sushiemon","https://www.yellowpages.com/boston-ma/mip/sushiemon-483876741?lid=483876741","(617) 236-1464","201 Massachusetts Ave","Boston","MA","02115","580"
"Chinese Mirch","https://www.yellowpages.com/boston-ma/mip/chinese-mirch-503180458?lid=503180458","(857) 350-4305","251 Massachusetts Ave","Boston","MA","02115","581"
"Parish Cafe","https://www.yellowpages.com/boston-ma/mip/parish-cafe-466621290?lid=466621290","(617) 391-0501","493 Massachusetts Ave","Boston","MA","02118","582"
"Ginger Exchange","https://www.yellowpages.com/boston-ma/mip/ginger-exchange-480178382?lid=480178382","(617) 867-9999","250 Huntington Ave","Boston","MA","02115","583"
"Genji Sushi","https://www.yellowpages.com/boston-ma/mip/genji-sushi-467871660?lid=467871660","(617) 375-1010","15 Westland Ave","Boston","MA","02115","584"
"Symphony Sushi","https://www.yellowpages.com/boston-ma/mip/symphony-sushi-22313721?lid=22313721","(617) 262-3888","45 Gainsborough St","Boston","MA","02115","585"
"Rick's 11a Cafe","https://www.yellowpages.com/boston-ma/mip/ricks-11a-cafe-481118206?lid=481118206","(617) 268-6862","11 Elkins St","Boston","MA","02127","586"
"Pho Countryside","https://www.yellowpages.com/boston-ma/mip/pho-countryside-531179358?lid=531179358","(857) 990-3679","468 Commonwealth Ave","Boston","MA","02215","587"
"Grille 705","https://www.yellowpages.com/boston-ma/mip/grille-705-480200077?lid=480200077","(617) 606-3522","705 Massachusetts Ave","Boston","MA","02118","588"
"Wings Over","https://www.yellowpages.com/boston-ma/mip/wings-over-475495984?lid=475495984","(617) 266-9464","325 Huntington Ave","Boston","MA","02115","589"
"Thai Dish","https://www.yellowpages.com/boston-ma/mip/thai-dish-467905474?lid=467905474","(617) 437-9611","636 Beacon St","Boston","MA","02215","590"
"Conor Larkin's Grill & Tap","https://www.yellowpages.com/boston-ma/mip/conor-larkins-grill-tap-470934985?lid=470934985","(617) 867-0084","329 Huntington Ave","Boston","MA","02115","591"
"Rudi's Resto Cafe and Bar","https://www.yellowpages.com/boston-ma/mip/rudis-resto-cafe-and-bar-455470049?lid=455470049","(617) 345-5432","811 Massachusetts Ave","Boston","MA","02118","592"
"New Market Pizza","https://www.yellowpages.com/boston-ma/mip/new-market-pizza-465602971?lid=465602971","(617) 427-1444","850 Massachusetts Ave","Boston","MA","02118","593"
"Uburger","https://www.yellowpages.com/boston-ma/mip/uburger-531346062?lid=531346062","(617) 536-0448","360 Huntington Ave","Boston","MA","02115","594"
"Cranberry Cafe","https://www.yellowpages.com/boston-ma/mip/cranberry-cafe-6752270?lid=6752270","(617) 268-3553","704 E Broadway","Boston","MA","02127","595"
"M & M Ribs","https://www.yellowpages.com/boston-ma/mip/m-m-ribs-505067626?lid=505067626","(617) 306-0788","155 Southampton St","Boston","MA","02118","596"
"Louie's Seafood of Boston","https://www.yellowpages.com/boston-ma/mip/louies-seafood-of-boston-530245090?lid=530245090","(617) 427-7272","18 Newmarket Sq","Boston","MA","02118","597"
"Sweet Caroline's Restaurant & Bar","https://www.yellowpages.com/boston-ma/mip/sweet-carolines-restaurant-bar-469437666?lid=469437666","(617) 424-1260","1260 Boylston St","Boston","MA","02215","598"
"Hojoko","https://www.yellowpages.com/boston-ma/mip/hojoko-507862373?lid=507862373","(617) 670-0507","1271 Boylston St","Boston","MA","02215","599"
"Cosi","https://www.yellowpages.com/boston-ma/mip/cosi-473529360?lid=473529360","(617) 569-0540","1 Harborside Dr Terminal B Air Canada Gates","Boston","MA","02128","600"
"6th Gear","https://www.yellowpages.com/boston-ma/mip/6th-gear-504985821?lid=504985821","(617) 268-6681","81 L St","Boston","MA","02127","601"
"Lucky's","https://www.yellowpages.com/boston-ma/mip/luckys-467275839?lid=467275839","(617) 567-2299","100 Terminal A Ste 02128","Boston","MA","02128","602"
"Ozone","https://www.yellowpages.com/boston-ma/mip/ozone-510680052?lid=510680052","(617) 634-6097","200 Terminal B","Boston","MA","02128","603"
"Tilted Kilt","https://www.yellowpages.com/boston-ma/mip/tilted-kilt-527272729?lid=527272729","(266) 464-7666","98 Brookline Ave","Boston","MA","02215","604"
"Speed's Hot Dog","https://www.yellowpages.com/boston-ma/mip/speeds-hot-dog-496610891?lid=496610891","(617) 839-0102","54 Newmarket Sq","Boston","MA","02118","605"
"Mays Teriyaki","https://www.yellowpages.com/boston-ma/mip/mays-teriyaki-530426969?lid=530426969","(617) 424-0900","130 Jersey St","Boston","MA","02215","606"
"M & J Teriyaki","https://www.yellowpages.com/boston-ma/mip/m-j-teriyaki-531454991?lid=531454991","(617) 424-0900","130 Jersey St","Boston","MA","02215","607"
"New American Cafe","https://www.yellowpages.com/boston-ma/mip/new-american-cafe-474977070?lid=474977070","(617) 267-9300","465 Huntington Ave","Boston","MA","02115","608"
"Ariabella","https://www.yellowpages.com/boston-ma/mip/ariabella-453007757?lid=453007757","(617) 266-1313","52 Queensberry St","Boston","MA","02215","609"
"Liberty Diner","https://www.yellowpages.com/boston-ma/mip/liberty-diner-7223890?lid=7223890","(617) 442-9262","1003 Massachusetts Ave","Boston","MA","02118","610"
"Yard House","https://www.yellowpages.com/boston-ma/mip/yard-house-471108477?lid=471108477","(617) 236-4083","126 Brookline Ave","Boston","MA","02215","611"
"Swish Shabu","https://www.yellowpages.com/boston-ma/mip/swish-shabu-469162839?lid=469162839","(617) 236-0255","86 Peterborough St","Boston","MA","02215","612"
"Umi Japanese Restaurant","https://www.yellowpages.com/boston-ma/mip/umi-japanese-restaurant-424396?lid=424396","(617) 536-6688","90 Peterborough St","Boston","MA","02215","613"
"Fiouna's Restaurant","https://www.yellowpages.com/boston-ma/mip/fiounas-restaurant-480982212?lid=480982212","(617) 247-7717","90 Peterborough St","Boston","MA","02215","614"
"El Pelon Taqueria","https://www.yellowpages.com/boston-ma/mip/el-pelon-taqueria-4216960?lid=4216960","(617) 262-9090","92 Peterborough St","Boston","MA","02215","615"
"Rod-Dee Thai Cuisine II","https://www.yellowpages.com/boston-ma/mip/rod-dee-thai-cuisine-ii-22549954?lid=22549954","(617) 859-0969","94 Peterborough St","Boston","MA","02215","616"
"Tiger Mama","https://www.yellowpages.com/boston-ma/mip/tiger-mama-519731904?lid=519731904","(617) 425-6262","1363 Boylston St","Boston","MA","02215","617"
"Fresh City","https://www.yellowpages.com/boston-ma/mip/fresh-city-471058568?lid=471058568","(617) 424-7907","201 Brookline Ave","Boston","MA","02215","618"
"Mei Mei","https://www.yellowpages.com/boston-ma/mip/mei-mei-481141980?lid=481141980","(857) 250-4959","506 Park Dr","Boston","MA","02215","619"
"Pavement Coffee House","https://www.yellowpages.com/boston-ma/mip/pavement-coffee-house-505078041?lid=505078041","(617) 277-8737","736 Commonwealth Ave","Boston","MA","02215","620"
"Chartwels At Nashart","https://www.yellowpages.com/boston-ma/mip/chartwels-at-nashart-541635753?lid=541635753","(617) 879-7965","625 Huntington Ave","Boston","MA","02115","621"
"Fresh City","https://www.yellowpages.com/boston-ma/mip/fresh-city-26152135?lid=26152135","(617) 232-5599","364 Brookline Ave","Boston","MA","02215","622"
"Ilmondo Pizza Shop","https://www.yellowpages.com/boston-ma/mip/ilmondo-pizza-shop-467281879?lid=467281879","(617) 277-7161","682 Huntington Ave","Boston","MA","02115","623"
"The Original Soupman","https://www.yellowpages.com/boston-ma/mip/the-original-soupman-477531292?lid=477531292","(617) 383-6419","350 Longwood Ave","Boston","MA","02115","624"
"Sakura Japan","https://www.yellowpages.com/boston-ma/mip/sakura-japan-469437254?lid=469437254","(617) 731-0009","350 Longwood Ave","Boston","MA","02115","625"
"Tsushi","https://www.yellowpages.com/boston-ma/mip/tsushi-10976667?lid=10976667","(617) 505-5155","350 Longwood Ave","Boston","MA","02115","626"
"Sepal Restaurant Authentic Middle Eastern Food","https://www.yellowpages.com/boston-ma/mip/sepal-restaurant-authentic-middle-eastern-food-469913358?lid=469913358","(617) 277-3500","350 Longwood Ave","Boston","MA","02115","627"
"Pat's Place","https://www.yellowpages.com/boston-ma/mip/pats-place-26236157?lid=26236157","(617) 732-4088","15 Francis St","Boston","MA","02115","628"
"Panera Bread","https://www.yellowpages.com/boston-ma/mip/panera-bread-453010036?lid=453010036","(617) 738-1501","888 Commonwealth Ave","Boston","MA","02215","629"
"Soul Fire","https://www.yellowpages.com/boston-ma/mip/soul-fire-472940418?lid=472940418","(617) 232-8000","737 Huntington Ave","Boston","MA","02115","630"
"Laughing Monk Cafe","https://www.yellowpages.com/boston-ma/mip/laughing-monk-cafe-536417410?lid=536417410","(617) 232-8000","737 Huntington Ave","Boston","MA","02115","631"
"Montecristo Mexican Grill","https://www.yellowpages.com/boston-ma/mip/montecristo-mexican-grill-746356?lid=746356","(617) 232-2228","748 Huntington Ave","Boston","MA","02115","632"
"Mama's Place","https://www.yellowpages.com/boston-ma/mip/mamas-place-459527596?lid=459527596","(617) 566-1300","764 Huntington Ave","Boston","MA","02115","633"
"Chair 5 Restaurant II Inc","https://www.yellowpages.com/boston-ma/mip/chair-5-restaurant-ii-inc-488834515?lid=488834515","(617) 779-9800","961 Commonwealth Ave","Boston","MA","02215","634"
"Thai Dish Restaurant","https://www.yellowpages.com/boston-ma/mip/thai-dish-restaurant-520304416?lid=520304416","(617) 789-5999","270 Babcock St","Boston","MA","02215","635"
"Quan's Kitchen Chinese Food","https://www.yellowpages.com/boston-ma/mip/quans-kitchen-chinese-food-1802594?lid=1802594","(617) 232-7617","1026 Commonwealth Ave","Boston","MA","02215","636"
"Live Noodles","https://www.yellowpages.com/boston-ma/mip/live-noodles-512023514?lid=512023514","(617) 879-1700","1026 Commonwealth Ave","Boston","MA","02215","637"
"Holly Crab","https://www.yellowpages.com/boston-ma/mip/holly-crab-523719262?lid=523719262","(617) 487-5957","1098 Commonwealth Ave","Boston","MA","02215","638"
"Pho Viets","https://www.yellowpages.com/boston-ma/mip/pho-viets-10466697?lid=10466697","(617) 562-8828","1095 Commonwealth Ave Ste 206","Boston","MA","02215","639"
"Dim Sum Chef","https://www.yellowpages.com/boston-ma/mip/dim-sum-chef-4381576?lid=4381576","(617) 254-2073","1095 Commonwealth Ave","Boston","MA","02215","640"
"Jmp Food Hut","https://www.yellowpages.com/boston-ma/mip/jmp-food-hut-460218147?lid=460218147","(617) 787-9700","1095 Commonwealth Ave","Boston","MA","02215","641"
"Chilipa Restaurant","https://www.yellowpages.com/boston-ma/mip/chilipa-restaurant-502826611?lid=502826611","(617) 987-0018","1095 Commonwealth Ave","Boston","MA","02215","642"
"wagamama","https://www.yellowpages.com/boston-ma/mip/wagamama-480727549?lid=480727549","(617) 742-9242","250 Quincy St","Boston","MA","02109","643"
"Dorset Hall","https://www.yellowpages.com/boston-ma/mip/dorset-hall-521936382?lid=521936382","(617) 533-7114","367 Neponset Ave","Boston","MA","02122","644"
"Harpoon Tap Room","https://www.yellowpages.com/boston-ma/mip/harpoon-tap-room-15234871?lid=15234871","(617) 561-4704","Airport Road Terminal A Satellite Concourse Gate A-20","Boston","MA","02128","645"
"Big Guy's","https://www.yellowpages.com/boston-ma/mip/big-guys-459622085?lid=459622085","(617) 973-6612","100 City Hall Plz","Boston","MA","02108","646"
"Cafe 472","https://www.yellowpages.com/boston-ma/mip/cafe-472-465616340?lid=465616340","(617) 236-4949","472 Commonwealth Ave","Boston","MA","02215","647"
"wagamama","https://www.yellowpages.com/boston-ma/mip/wagamama-468569334?lid=468569334","(617) 742-9242","Quincy Market Building","Boston","MA","02109","648"
"The Boston Restaurant Group","https://www.yellowpages.com/boston-ma/mip/the-boston-restaurant-group-472754434?lid=472754434","(617) 587-9800","BEACON St","Boston","MA","02115","649"
"Hilton Hotels & Resorts","https://www.yellowpages.com/boston-ma/mip/hilton-hotels-resorts-493914946?lid=493914946","(617) 236-1100","40 Dalton St","Boston","MA","02115","650"
"Dine Boston Restaurant","https://www.yellowpages.com/boston-ma/mip/dine-boston-restaurant-520941419?lid=520941419","(617) 567-5700","1 Harborside Dr Terminal E Security Checkpoint","Boston","MA","02128","651"
"Sorellina","https://www.yellowpages.com/boston-ma/mip/sorellina-473501579?lid=473501579","(617) 412-4600","1 Huntington Ave","Boston","MA","02116","652"
"Clio","https://www.yellowpages.com/boston-ma/mip/clio-8840560?lid=8840560","(617) 536-7200","370 Commonwealth Ave","Boston","MA","02215","653"
"Villa Francesca","https://www.yellowpages.com/boston-ma/mip/villa-francesca-2727039?lid=2727039","(617) 367-2948","150 Richmond St","Boston","MA","02109","654"
"Cosi","https://www.yellowpages.com/boston-ma/mip/cosi-458159477?lid=458159477","(617) 723-4447","53 State St","Boston","MA","02109","655"
"Dry Dock Cafe","https://www.yellowpages.com/boston-ma/mip/dry-dock-cafe-26244558?lid=26244558","(617) 951-2999","7 Drydock Ave","Boston","MA","02210","656"
"Rustic Kitchen","https://www.yellowpages.com/boston-ma/mip/rustic-kitchen-462285507?lid=462285507","(617) 423-5700","210 Stuart St","Boston","MA","02116","657"
"Morse Fish Company","https://www.yellowpages.com/boston-ma/mip/morse-fish-company-13090332?lid=13090332","(617) 262-9375","1401 Washington St","Boston","MA","02118","658"
"New Jumbo Seafood Restaurant","https://www.yellowpages.com/boston-ma/mip/new-jumbo-seafood-restaurant-7505682?lid=7505682","(617) 542-2823","7 Hudson St","Boston","MA","02111","659"
"Legal Harborside","https://www.yellowpages.com/boston-ma/mip/legal-harborside-465521786?lid=465521786","(617) 477-2900","270 Northern Ave","Boston","MA","02210","660"
"Met Back Bay","https://www.yellowpages.com/boston-ma/mip/met-back-bay-460864561?lid=460864561","(617) 267-0451","279 Dartmouth St","Boston","MA","02116","661"
"Lir Irish Pub & Restaurant","https://www.yellowpages.com/boston-ma/mip/lir-irish-pub-restaurant-9472682?lid=9472682","(617) 778-0089","903 Boylston St","Boston","MA","02115","662"
"Chilli Duck Thai Restaurant","https://www.yellowpages.com/boston-ma/mip/chilli-duck-thai-restaurant-5409338?lid=5409338","(617) 236-5208","829 Boylston St","Boston","MA","02116","663"
"Limoncello Ristorante","https://www.yellowpages.com/boston-ma/mip/limoncello-ristorante-11563292?lid=11563292","(617) 523-4480","190 North St","Boston","MA","02113","664"
"Tresca","https://www.yellowpages.com/boston-ma/mip/tresca-6891933?lid=6891933","(617) 742-8240","233 Hanover St","Boston","MA","02113","665"
"Piccola Venezia","https://www.yellowpages.com/boston-ma/mip/piccola-venezia-13289804?lid=13289804","(857) 277-0849","263 Hanover St","Boston","MA","02113","666"
"Morton's The Steakhouse","https://www.yellowpages.com/boston-ma/mip/mortons-the-steakhouse-474263235?lid=474263235","(617) 526-0410","2 Seaport Ln","Boston","MA","02210","667"
"Post 390","https://www.yellowpages.com/boston-ma/mip/post-390-30305465?lid=30305465","(617) 399-0015","406 Stuart St","Boston","MA","02116","668"
"Umbria Prime","https://www.yellowpages.com/boston-ma/mip/umbria-prime-458922091?lid=458922091","(617) 338-1000","295 Franklin St","Boston","MA","02110","669"
"Wings Kitchen","https://www.yellowpages.com/boston-ma/mip/wings-kitchen-4356788?lid=4356788","(617) 338-2218","23 Hudson St","Boston","MA","02111","670"
"Union","https://www.yellowpages.com/boston-ma/mip/union-7997861?lid=7997861","(617) 423-0555","1357 Washington St","Boston","MA","02118","671"
"Via Matta","https://www.yellowpages.com/boston-ma/mip/via-matta-458921857?lid=458921857","(617) 422-0008","79 Park Plz","Boston","MA","02116","672"
"Cactus Club Restaurant & Bar","https://www.yellowpages.com/boston-ma/mip/cactus-club-restaurant-bar-16437409?lid=16437409","(617) 236-0200","939 Boylston St","Boston","MA","02115","673"
"Mistral","https://www.yellowpages.com/boston-ma/mip/mistral-9317849?lid=9317849","(617) 867-9300","223 Columbus Ave","Boston","MA","02116","674"
"Toro","https://www.yellowpages.com/boston-ma/mip/toro-607114?lid=607114","(617) 536-4300","1704 Washington St","Boston","MA","02118","675"
"The Living Room","https://www.yellowpages.com/boston-ma/mip/the-living-room-7932637?lid=7932637","(617) 723-5101","101 Atlantic Ave","Boston","MA","02110","676"
"La Dolce Vita","https://www.yellowpages.com/boston-ma/mip/la-dolce-vita-7537183?lid=7537183","(617) 720-0422","221 Hanover St","Boston","MA","02113","677"
"Five North Square","https://www.yellowpages.com/boston-ma/mip/five-north-square-465654055?lid=465654055","(617) 720-1050","5 North Sq","Boston","MA","02113","678"
"Douzo Modern Japanese Restaurant","https://www.yellowpages.com/boston-ma/mip/douzo-modern-japanese-restaurant-17535210?lid=17535210","(617) 859-8886","131 Dartmouth St","Boston","MA","02116","679"
"Teatro","https://www.yellowpages.com/boston-ma/mip/teatro-4867972?lid=4867972","(617) 778-6841","177 Tremont St","Boston","MA","02111","680"
"Eastern Standard","https://www.yellowpages.com/boston-ma/mip/eastern-standard-125343?lid=125343","(617) 532-9100","528 Commonwealth Ave","Boston","MA","02215","681"
"Audubon Boston","https://www.yellowpages.com/boston-ma/mip/audubon-boston-11322280?lid=11322280","(617) 421-1910","838 Beacon St","Boston","MA","02215","682"
"La Summa","https://www.yellowpages.com/boston-ma/mip/la-summa-8968224?lid=8968224","(617) 523-9503","30 Fleet St","Boston","MA","02113","683"
"J J Foley's Cafe","https://www.yellowpages.com/boston-ma/mip/j-j-foleys-cafe-13941572?lid=13941572","(617) 695-2529","21 Kingston St","Boston","MA","02111","684"
"Massimino's","https://www.yellowpages.com/boston-ma/mip/massiminos-8122143?lid=1001876479749","(617) 752-3614","207 Endicott St","Boston","MA","02113","685"
"Lucca Back Bay","https://www.yellowpages.com/boston-ma/mip/lucca-back-bay-924403?lid=1001876489720","(617) 910-3543","116 Huntington Ave","Boston","MA","02116","686"
"Brownstone","https://www.yellowpages.com/boston-ma/mip/brownstone-8984025?lid=8984025","(617) 867-4142","111 Dartmouth St","Boston","MA","02116","687"
"49 Social","https://www.yellowpages.com/boston-ma/mip/49-social-465516275?lid=465516275","(617) 338-9600","49 Temple Pl","Boston","MA","02111","688"
"Da Vinci","https://www.yellowpages.com/boston-ma/mip/da-vinci-13079043?lid=13079043","(617) 350-0007","162 Columbus Ave","Boston","MA","02116","689"
"Union Oyster House","https://www.yellowpages.com/boston-ma/mip/union-oyster-house-12683278?lid=12683278","(617) 227-2750","41 Union St","Boston","MA","02108","690"
"The Daily Catch","https://www.yellowpages.com/boston-ma/mip/the-daily-catch-22250960?lid=22250960","(617) 772-4400","2 Northern Ave","Boston","MA","02210","691"
"Turner Fisheries","https://www.yellowpages.com/boston-ma/mip/turner-fisheries-4118659?lid=4118659","(617) 424-7425","10 Huntington Ave","Boston","MA","02116","692"
"Barlow's Restaurant","https://www.yellowpages.com/boston-ma/mip/barlows-restaurant-26176708?lid=26176708","(617) 338-2142","241 A St Ste 100","Boston","MA","02210","693"
"Best Little Restaurant","https://www.yellowpages.com/boston-ma/mip/best-little-restaurant-16800650?lid=16800650","(617) 338-4988","13 Hudson St","Boston","MA","02111","694"
"Rabia's Seafood/Oyster Bar & Italian Restaurant","https://www.yellowpages.com/boston-ma/mip/rabias-seafood-oyster-bar-italian-restaurant-13971143?lid=13971143","(617) 227-6637","73 Salem St","Boston","MA","02113","695"
"La Famiglia Giorgio's","https://www.yellowpages.com/boston-ma/mip/la-famiglia-giorgios-11156306?lid=11156306","(617) 367-6711","112 Salem St","Boston","MA","02113","696"
"Chau Chow City Restaurant","https://www.yellowpages.com/boston-ma/mip/chau-chow-city-restaurant-4597061?lid=4597061","(617) 338-8158","83 Essex St","Boston","MA","02111","697"
"King & I","https://www.yellowpages.com/boston-ma/mip/king-i-7826381?lid=7826381","(617) 227-3320","145 Charles St","Boston","MA","02114","698"
"Euno Restorante","https://www.yellowpages.com/boston-ma/mip/euno-restorante-5127791?lid=5127791","(617) 573-9406","119 Salem St","Boston","MA","02113","699"
"Cantina Italiana","https://www.yellowpages.com/boston-ma/mip/cantina-italiana-4539167?lid=4539167","(617) 723-4577","346 Hanover St","Boston","MA","02113","700"
"Trattoria Il Panino","https://www.yellowpages.com/boston-ma/mip/trattoria-il-panino-9189115?lid=9189115","(617) 720-1336","11 Parmenter St","Boston","MA","02113","701"
"Anthony's Pier 4","https://www.yellowpages.com/boston-ma/mip/anthonys-pier-4-1867192?lid=1867192","(857) 209-4602","140 Northern Ave","Boston","MA","02210","702"
"Victoria Seafood Restaurant","https://www.yellowpages.com/boston-ma/mip/victoria-seafood-restaurant-12061799?lid=12061799","(617) 783-5111","1029 Commonwealth Ave","Boston","MA","02215","703"
"New York Pizza-South End","https://www.yellowpages.com/boston-ma/mip/new-york-pizza-south-end-5136048?lid=5136048","(617) 266-7020","435 Massachusetts Ave","Boston","MA","02118","704"
"Mooo....","https://www.yellowpages.com/boston-ma/mip/mooo-7255909?lid=7255909","(617) 670-2515","15 Beacon St","Boston","MA","02108","705"
"Clerys Bar & Restaurant","https://www.yellowpages.com/boston-ma/mip/clerys-bar-restaurant-473484442?lid=473484442","(617) 262-9874","113 Dartmouth St","Boston","MA","02116","706"
"Clarke's at Faneuil Hall","https://www.yellowpages.com/boston-ma/mip/clarkes-at-faneuil-hall-472536405?lid=472536405","(617) 227-7800","21 Merchants Row","Boston","MA","02109","707"
"Nino's Pizza","https://www.yellowpages.com/boston-ma/mip/ninos-pizza-12211434?lid=12211434","(617) 523-3974","79 Charles St","Boston","MA","02114","708"
"Cafe Fleuri","https://www.yellowpages.com/boston-ma/mip/cafe-fleuri-457433558?lid=457433558","(617) 451-1900","250 Franklin St","Boston","MA","02110","709"
"California Pizza Kitchen","https://www.yellowpages.com/boston-ma/mip/california-pizza-kitchen-464771480?lid=464771480","(617) 247-0888","800 Boylston St","Boston","MA","02199","710"
"Herrera's Mexican Grill","https://www.yellowpages.com/boston-ma/mip/herreras-mexican-grill-13329241?lid=13329241","(617) 426-2350","11 Temple Pl","Boston","MA","02111","711"
"Tasty Burger","https://www.yellowpages.com/boston-ma/mip/tasty-burger-459013715?lid=459013715","(617) 425-4444","1301 Boylston St","Boston","MA","02215","712"
"Empire","https://www.yellowpages.com/boston-ma/mip/empire-472010990?lid=472010990","(617) 295-0001","1 Marina Park Dr","Boston","MA","02210","713"
"Boston Sports Grille","https://www.yellowpages.com/boston-ma/mip/boston-sports-grille-994169?lid=994169","(617) 367-9302","132 Canal St","Boston","MA","02114","714"
"Church","https://www.yellowpages.com/boston-ma/mip/church-464953951?lid=464953951","(617) 236-7600","69 Kilmarnock St","Boston","MA","02215","715"
"Fogo de Chao","https://www.yellowpages.com/boston-ma/mip/fogo-de-chao-475713030?lid=475713030","(617) 585-6300","200 Dartmouth St","Boston","MA","02116","716"
"Panera Bread","https://www.yellowpages.com/boston-ma/mip/panera-bread-465262378?lid=465262378","(617) 638-3260","450 Boylston St","Boston","MA","02116","717"
"UNO Pizzeria & Grill","https://www.yellowpages.com/boston-ma/mip/uno-pizzeria-grill-474309822?lid=474309822","(617) 267-8554","731 Boylston St","Boston","MA","02116","718"
"Felcaro Pizzeria","https://www.yellowpages.com/boston-ma/mip/felcaro-pizzeria-24458?lid=24458","(617) 742-0011","280 Cambridge St","Boston","MA","02114","719"
"Pairings","https://www.yellowpages.com/boston-ma/mip/pairings-451380237?lid=451380237","(617) 262-3473","50 Park Plz","Boston","MA","02116","720"
"Scoozi","https://www.yellowpages.com/boston-ma/mip/scoozi-456106106?lid=456106106","(617) 536-7777","580 Commonwealth Ave","Boston","MA","02215","721"
"Bertucci's","https://www.yellowpages.com/boston-ma/mip/bertuccis-3723274?lid=3723274","(617) 739-2492","1 Blackfan Cir","Boston","MA","02115","722"
"Classic Restaurant Concepts","https://www.yellowpages.com/boston-ma/mip/classic-restaurant-concepts-470402184?lid=470402184","(617) 371-0901","15 Court St","Boston","MA","02108","723"
"Cafe Quattro","https://www.yellowpages.com/boston-ma/mip/cafe-quattro-12574991?lid=12574991","(617) 557-9291","11 Beacon St","Boston","MA","02108","724"
"Aris Eat Barbecue","https://www.yellowpages.com/boston-ma/mip/aris-eat-barbecue-1043843?lid=1043843","(617) 742-2947","1 Faneuil Hall Market Pl Ste 200","Boston","MA","02109","725"
"Fisherman's Net","https://www.yellowpages.com/boston-ma/mip/fishermans-net-462279972?lid=462279972","(617) 742-2872","1 Faneuil Hall Market Pl","Boston","MA","02109","726"
"Philadelphia Steak & Hoagie","https://www.yellowpages.com/boston-ma/mip/philadelphia-steak-hoagie-7940437?lid=7940437","(617) 742-4773","FANEUIL Hall Marketplace","Boston","MA","02109","727"
"Pulcinella Mozzarella Bar & Ristorante","https://www.yellowpages.com/boston-ma/mip/pulcinella-mozzarella-bar-ristorante-472665530?lid=472665530","(857) 263-8521","78 Salem St","Boston","MA","02113","728"
"Chinese Spaghetti Factory","https://www.yellowpages.com/boston-ma/mip/chinese-spaghetti-factory-12981201?lid=12981201","(617) 542-0224","73 Essex St","Boston","MA","02111","729"
"Quick Pic Bbq","https://www.yellowpages.com/boston-ma/mip/quick-pic-bbq-20133865?lid=20133865","(617) 426-1110","50 Beach St","Boston","MA","02111","730"
"Great Barbecue","https://www.yellowpages.com/boston-ma/mip/great-barbecue-7070496?lid=7070496","(617) 728-8699","15 Hudson St","Boston","MA","02111","731"
"Cosi","https://www.yellowpages.com/boston-ma/mip/cosi-10506805?lid=10506805","(617) 720-2674","245 Summer St","Boston","MA","02210","732"
"Theo's Cozy Corner Restaurant","https://www.yellowpages.com/boston-ma/mip/theos-cozy-corner-restaurant-2698503?lid=2698503","(617) 241-0202","162 Salem St","Boston","MA","02113","733"
"Viga","https://www.yellowpages.com/boston-ma/mip/viga-9319858?lid=9319858","(617) 542-7200","304 Stuart St","Boston","MA","02116","734"
"Glass Terrace Restaurant","https://www.yellowpages.com/boston-ma/mip/glass-terrace-restaurant-467830075?lid=467830075","(617) 236-5800","110 Huntington Ave","Boston","MA","02116","735"
"East Bay Seafood","https://www.yellowpages.com/boston-ma/mip/east-bay-seafood-467501999?lid=467501999","(617) 737-0891","339 Northern Ave","Boston","MA","02210","736"
"La Esquinita Restaurant Inc","https://www.yellowpages.com/boston-ma/mip/la-esquinita-restaurant-inc-475174895?lid=475174895","(617) 567-1134","389 Maverick St","Boston","MA","02128","737"
"Dannys Restaurant Inc","https://www.yellowpages.com/boston-ma/mip/dannys-restaurant-inc-461153963?lid=461153963","(617) 442-9464","1033 Massachusetts Ave","Boston","MA","02118","738"
"U Burger","https://www.yellowpages.com/boston-ma/mip/u-burger-12833328?lid=12833328","(617) 487-4855","1022 Commonwealth Ave","Boston","MA","02215","739"
"Bostonian Hotel-Seasons Restaurant","https://www.yellowpages.com/boston-ma/mip/bostonian-hotel-seasons-restaurant-19346792?lid=19346792","(617) 720-0379","","Boston","MA","02108","740"
"La Galleria 33","https://www.yellowpages.com/boston-ma/mip/la-galleria-33-489651?lid=489651","(617) 723-7233","125 Salem St Ste 1","Boston","MA","02113","741"
"Boston Beer Works","https://www.yellowpages.com/boston-ma/mip/boston-beer-works-8116340?lid=8116340","(617) 536-2337","61 Brookline Ave Ste 2","Boston","MA","02215","742"
"Carmen","https://www.yellowpages.com/boston-ma/mip/carmen-15107107?lid=15107107","(617) 742-6421","33 North Sq","Boston","MA","02113","743"
"Penguin Pizza","https://www.yellowpages.com/boston-ma/mip/penguin-pizza-3328642?lid=3328642","(617) 277-9200","735 Huntington Ave","Boston","MA","02115","744"
"Antico Forno","https://www.yellowpages.com/boston-ma/mip/antico-forno-5080465?lid=5080465","(617) 723-6733","93 Salem St","Boston","MA","02113","745"
"Rocca","https://www.yellowpages.com/boston-ma/mip/rocca-7155079?lid=7155079","(617) 451-5151","500 Harrison Ave","Boston","MA","02118","746"
"India Quality Restaurant","https://www.yellowpages.com/boston-ma/mip/india-quality-restaurant-452267150?lid=452267150","(617) 267-4499","484 Commonwealth Ave","Boston","MA","02215","747"
"Little Steve's Pizzeria","https://www.yellowpages.com/boston-ma/mip/little-steves-pizzeria-8535008?lid=8535008","(617) 266-5566","1114 Boylston St","Boston","MA","02215","748"
"Deuxave","https://www.yellowpages.com/boston-ma/mip/deuxave-458951585?lid=458951585","(617) 517-5915","371 Commonwealth Ave","Boston","MA","02115","749"
"Sel De La Terre","https://www.yellowpages.com/boston-ma/mip/sel-de-la-terre-458824458?lid=458824458","(617) 266-8800","774 Boylston St","Boston","MA","02199","750"
"Sal's Ristorante & Pizzeria","https://www.yellowpages.com/boston-ma/mip/sals-ristorante-pizzeria-455904727?lid=455904727","(617) 268-5800","205 L St","Boston","MA","02127","751"
"Andre's Cafe","https://www.yellowpages.com/boston-ma/mip/andres-cafe-13165516?lid=13165516","(617) 267-9599","811 Harrison Ave","Boston","MA","02118","752"
"UNO Pizzeria & Grill","https://www.yellowpages.com/boston-ma/mip/uno-pizzeria-grill-460290752?lid=460290752","(617) 262-4911","645 Beacon St","Boston","MA","02215","753"
"Cafe Bella Vita","https://www.yellowpages.com/boston-ma/mip/cafe-bella-vita-5382177?lid=5382177","(617) 720-4505","30 Charles St","Boston","MA","02114","754"
"Johnnie's On The Side","https://www.yellowpages.com/boston-ma/mip/johnnies-on-the-side-806246?lid=806246","(617) 227-1588","138 Portland St","Boston","MA","02114","755"
"Chicken Lou's Inc","https://www.yellowpages.com/boston-ma/mip/chicken-lous-inc-7624426?lid=7624426","(617) 859-7017","50 Forsyth St","Boston","MA","02115","756"
"Blu","https://www.yellowpages.com/boston-ma/mip/blu-451383185?lid=451383185","(617) 375-8550","4 Avery St","Boston","MA","02111","757"
"Rice Bowl","https://www.yellowpages.com/boston-ma/mip/rice-bowl-6971870?lid=6971870","(617) 267-2828","6 Hemenway St","Boston","MA","02115","758"
"Moby Dick Of Boston","https://www.yellowpages.com/boston-ma/mip/moby-dick-of-boston-20297809?lid=20297809","(617) 236-5511","269 Huntington Ave","Boston","MA","02115","759"
"Panera Bread","https://www.yellowpages.com/boston-ma/mip/panera-bread-462286499?lid=462286499","(617) 425-8565","289 Huntington Ave","Boston","MA","02115","760"
"Gaga Seafood Restaurant","https://www.yellowpages.com/boston-ma/mip/gaga-seafood-restaurant-468313762?lid=468313762","(617) 422-0664","25 Tyler St","Boston","MA","02111","761"
"The Black Rose","https://www.yellowpages.com/boston-ma/mip/the-black-rose-5753480?lid=5753480","(617) 742-2286","Boston 02109","Boston","MA","02109","762"
"D'guru Resturant","https://www.yellowpages.com/boston-ma/mip/dguru-resturant-4515655?lid=4515655","(617) 542-7100","185 Devonshire St","Boston","MA","02110","763"
"Margo Bistro","https://www.yellowpages.com/boston-ma/mip/margo-bistro-473158588?lid=473158588","(617) 670-2033","185 State St","Boston","MA","02109","764"
"Cosi","https://www.yellowpages.com/boston-ma/mip/cosi-458680013?lid=458680013","(617) 292-2674","125 High St","Boston","MA","02110","765"
"Ida's Restaurant","https://www.yellowpages.com/boston-ma/mip/idas-restaurant-15594084?lid=15594084","(617) 523-0015","3 Mechanic St","Boston","MA","02113","766"
"Jerne Restaurant & Bar","https://www.yellowpages.com/boston-ma/mip/jerne-restaurant-bar-473429915?lid=473429915","(617) 574-7175","10 Avery St","Boston","MA","02111","767"
"Seafood Debtors","https://www.yellowpages.com/boston-ma/mip/seafood-debtors-469917577?lid=469917577","(617) 338-8200","8 Harrison Avenue Ext","Boston","MA","02111","768"
"Asian Garden Restaurant","https://www.yellowpages.com/boston-ma/mip/asian-garden-restaurant-2507681?lid=2507681","(617) 695-1646","28 Harrison Ave Ste 1","Boston","MA","02111","769"
"Yan's Best Place Restaurant","https://www.yellowpages.com/boston-ma/mip/yans-best-place-restaurant-1163900?lid=1163900","(617) 338-6223","52 Beach St","Boston","MA","02111","770"
"Best Bar-B-Que Kitchen Inc","https://www.yellowpages.com/boston-ma/mip/best-bar-b-que-kitchen-inc-22311392?lid=22311392","(617) 399-0285","86 Beach St","Boston","MA","02111","771"
"The Butcher Shop","https://www.yellowpages.com/boston-ma/mip/the-butcher-shop-2468250?lid=2468250","(617) 423-4800","552 Tremont St","Boston","MA","02118","772"
"Kitchen","https://www.yellowpages.com/boston-ma/mip/kitchen-480083572?lid=480083572","(617) 695-1250","560 Tremont St","Boston","MA","02118","773"
"BOMA Restaurant & Bar","https://www.yellowpages.com/boston-ma/mip/boma-restaurant-bar-473015373?lid=473015373","(617) 536-2662","1415 Washington St","Boston","MA","02118","774"
"McGreevy's","https://www.yellowpages.com/boston-ma/mip/mcgreevys-10179193?lid=10179193","(617) 262-0911","911 Boylston St","Boston","MA","02115","775"
"Cosi","https://www.yellowpages.com/boston-ma/mip/cosi-455543984?lid=455543984","(617) 569-0540","Airport Road Terminal B Gate B-38","Boston","MA","02128","776"
"Sarkis Antreassian Restaurant","https://www.yellowpages.com/boston-ma/mip/sarkis-antreassian-restaurant-8228807?lid=8228807","(617) 606-3522","705 Massachusetts Ave","Boston","MA","02118","777"
"South Bay Grill","https://www.yellowpages.com/boston-ma/mip/south-bay-grill-8086389?lid=8086389","(617) 427-1444","850 Massachusetts Ave","Boston","MA","02118","778"
"Sweet Cheeks Q","https://www.yellowpages.com/boston-ma/mip/sweet-cheeks-q-12853317?lid=12853317","(617) 266-0300","1381 Boylston St","Boston","MA","02215","779"
"Dragon Bowl","https://www.yellowpages.com/boston-ma/mip/dragon-bowl-8509743?lid=8509743","(617) 232-8880","400 Brookline Ave","Boston","MA","02215","780"
"Shabu-Zen","https://www.yellowpages.com/boston-ma/mip/shabu-zen-5630902?lid=5630902","(617) 292-8828","16 Tyler St","Boston","MA","02111","781"
"Laurel Grill and Bar","https://www.yellowpages.com/boston-ma/mip/laurel-grill-and-bar-466223854?lid=466223854","(617) 424-6711","142 Berkeley St","Boston","MA","02116","782"
"T. Anthony's Pizzeria","https://www.yellowpages.com/boston-ma/mip/t-anthonys-pizzeria-1461359?lid=1461359","(617) 734-7708","1016 Commonwealth Ave","Boston","MA","02215","783"
"Mela Restaurant","https://www.yellowpages.com/boston-ma/mip/mela-restaurant-9891405?lid=9891405","(617) 859-4805","578 Tremont St","Boston","MA","02118","784"
"Bravo Restaurant","https://www.yellowpages.com/boston-ma/mip/bravo-restaurant-474346688?lid=474346688","(617) 369-3474","465 Huntington Ave","Boston","MA","02115","785"
"Empire Garden Restaurant","https://www.yellowpages.com/boston-ma/mip/empire-garden-restaurant-8983589?lid=8983589","(617) 482-8898","690 Washington St","Boston","MA","02111","786"
"wagamama boston prudential center","https://www.yellowpages.com/boston-ma/mip/wagamama-boston-prudential-center-460628352?lid=460628352","(617) 778-2344","800 Boylston Street, Store 117","Boston","MA","02199","787"
"Amici Restaurante","https://www.yellowpages.com/boston-ma/mip/amici-restaurante-7394157?lid=7394157","(617) 742-2998","111 N Washington St","Boston","MA","02114","788"
"Papa Razzi","https://www.yellowpages.com/boston-ma/mip/papa-razzi-6051260?lid=6051260","(617) 536-9200","159 Newbury St","Boston","MA","02116","789"
"Alibi Bar and Lounge","https://www.yellowpages.com/boston-ma/mip/alibi-bar-and-lounge-22434876?lid=22434876","(857) 241-1144","215 Charles St","Boston","MA","02114","790"
"Brandy Pete's","https://www.yellowpages.com/boston-ma/mip/brandy-petes-10083883?lid=10083883","(617) 439-4165","267 Franklin St","Boston","MA","02110","791"
"Emilio's Pizza","https://www.yellowpages.com/boston-ma/mip/emilios-pizza-15390300?lid=15390300","(617) 423-4083","536 Tremont St","Boston","MA","02116","792"
"Bertucci's","https://www.yellowpages.com/boston-ma/mip/bertuccis-12693566?lid=12693566","(617) 236-1030","533 Commonwealth Ave","Boston","MA","02215","793"
"Il Panino Express","https://www.yellowpages.com/boston-ma/mip/il-panino-express-460628684?lid=460628684","(617) 720-5720","266 Hanover St","Boston","MA","02113","794"
"Hsin Hsin Restaurant","https://www.yellowpages.com/boston-ma/mip/hsin-hsin-restaurant-1497171?lid=1497171","(617) 536-9852","25 Massachusetts Ave","Boston","MA","02115","795"
"L'Espalier","https://www.yellowpages.com/boston-ma/mip/lespalier-457973030?lid=457973030","(617) 262-3023","774 Boylston St","Boston","MA","02199","796"
"Menton","https://www.yellowpages.com/boston-ma/mip/menton-456103004?lid=456103004","(617) 737-0099","354 Congress St","Boston","MA","02210","797"
"Thornton's Restaurant","https://www.yellowpages.com/boston-ma/mip/thorntons-restaurant-1654207?lid=1654207","(617) 267-6336","150 Huntington Ave","Boston","MA","02115","798"
"Vejigantes Restaurant","https://www.yellowpages.com/boston-ma/mip/vejigantes-restaurant-15137687?lid=15137687","(617) 247-9249","57 W Dedham St","Boston","MA","02118","799"
"Bertucci's","https://www.yellowpages.com/boston-ma/mip/bertuccis-472542382?lid=472542382","(617) 227-7889","22 Merchants Row","Boston","MA","02109","800"
"Tavern Road","https://www.yellowpages.com/boston-ma/mip/tavern-road-476056822?lid=476056822","(617) 790-0808","343 Congress St Lbby 1","Boston","MA","02210","801"
"Lolita Cocina & Tequila Bar","https://www.yellowpages.com/boston-ma/mip/lolita-cocina-tequila-bar-462279281?lid=462279281","(617) 369-5609","271 Dartmouth St","Boston","MA","02116","802"
"Spire Restaurant","https://www.yellowpages.com/boston-ma/mip/spire-restaurant-453129978?lid=453129978","(617) 772-0232","90 Tremont St","Boston","MA","02108","803"
"Cosi","https://www.yellowpages.com/boston-ma/mip/cosi-5776067?lid=5776067","(617) 426-0593","14 Milk St","Boston","MA","02108","804"
"Fresh City","https://www.yellowpages.com/boston-ma/mip/fresh-city-14731535?lid=14731535","(617) 561-4700","100 Terminal E","Boston","MA","02128","805"
"Treitman Neil Lmt","https://www.yellowpages.com/boston-ma/mip/treitman-neil-lmt-22321501?lid=22321501","(617) 973-9733","90 N Washington St","Boston","MA","02114","806"
"Cosi","https://www.yellowpages.com/boston-ma/mip/cosi-462261458?lid=462261458","(617) 951-9999","720 Atlantic Ave","Boston","MA","02111","807"
"Boodles Restaurant & Bar","https://www.yellowpages.com/boston-ma/mip/boodles-restaurant-bar-23106400?lid=23106400","(617) 266-3537","40 Dalton St","Boston","MA","02115","808"
"Teranga Restaurant","https://www.yellowpages.com/boston-ma/mip/teranga-restaurant-18730251?lid=18730251","(617) 266-0003","1746 Washington St","Boston","MA","02118","809"
"Saray Restaurant","https://www.yellowpages.com/boston-ma/mip/saray-restaurant-2220421?lid=2220421","(617) 383-6651","1098 Commonwealth Ave","Boston","MA","02215","810"
"Ernesto's Pizza","https://www.yellowpages.com/boston-ma/mip/ernestos-pizza-4329405?lid=4329405","(617) 523-1373","69 Salem St Ste 1","Boston","MA","02113","811"
"75 on Liberty Wharf","https://www.yellowpages.com/boston-ma/mip/75-on-liberty-wharf-473591290?lid=473591290","(617) 227-0754","220 Northern Ave","Boston","MA","02210","812"
"Bar Boulud Private Dining","https://www.yellowpages.com/boston-ma/mip/bar-boulud-private-dining-503096985?lid=503096985","(617) 603-2939","776 Boylston St","Boston","MA","02199","813"
"Starbucks Coffee","https://www.yellowpages.com/boston-ma/mip/starbucks-coffee-455378673?lid=455378673","(617) 859-0703","10 Huntington Ave Ste D","Boston","MA","02116","814"
"Walburgers","https://www.yellowpages.com/boston-ma/mip/walburgers-514392337?lid=514392337","(617) 927-6810","132 Brookline Ave","Boston","MA","02215","815"
"Rock Bottom Restaurant & Brewery","https://www.yellowpages.com/boston-ma/mip/rock-bottom-restaurant-brewery-7922129?lid=7922129","(617) 742-2739","115 Stuart St","Boston","MA","02116","816"
"BOND Restaurant and Lounge","https://www.yellowpages.com/boston-ma/mip/bond-restaurant-and-lounge-22725897?lid=22725897","(617) 956-8765","250 Franklin St","Boston","MA","02110","817"
"Rosa Mexicano","https://www.yellowpages.com/boston-ma/mip/rosa-mexicano-471903430?lid=471903430","(617) 476-6122","155 Seaport Blvd","Boston","MA","02210","818"
"Cheers Faneuil Hall","https://www.yellowpages.com/boston-ma/mip/cheers-faneuil-hall-480202695?lid=480202695","(617) 248-9900","1 Faneuil Hall Market Pl","Boston","MA","02109","819"
"Starbucks Coffee","https://www.yellowpages.com/boston-ma/mip/starbucks-coffee-451385356?lid=451385356","(617) 536-5282","165 Newbury St","Boston","MA","02116","820"
"Starbucks Coffee","https://www.yellowpages.com/boston-ma/mip/starbucks-coffee-1393884?lid=1393884","(617) 742-2664","1 Charles St","Boston","MA","02114","821"
"Bruegger's Bagels","https://www.yellowpages.com/boston-ma/mip/brueggers-bagels-473806362?lid=473806362","(617) 262-7939","644 Beacon St","Boston","MA","02215","822"
"Blaze Pizza","https://www.yellowpages.com/boston-ma/mip/blaze-pizza-7013679?lid=7013679","(617) 482-3459","224 Tremont St","Boston","MA","02116","823"
"Au Bon Pain","https://www.yellowpages.com/boston-ma/mip/au-bon-pain-14062826?lid=14062826","(617) 247-9467","100 Huntington Ave Ste 54","Boston","MA","02116","824"
"Beantown Pastrami Co.","https://www.yellowpages.com/boston-ma/mip/beantown-pastrami-co-521656800?lid=521656800","(617) 957-1809","100 Hanover St","Boston","MA","02108","825"
"Starbucks Coffee","https://www.yellowpages.com/boston-ma/mip/starbucks-coffee-10652356?lid=10652356","(617) 720-2220","240 Washington St","Boston","MA","02108","826"
"Starbucks Coffee","https://www.yellowpages.com/boston-ma/mip/starbucks-coffee-507357009?lid=507357009","(617) 227-2284","63 Court St # 65","Boston","MA","02108","827"
"Dunkin' Donuts","https://www.yellowpages.com/boston-ma/mip/dunkin-donuts-26237167?lid=26237167","(617) 536-8852","145 Dartmouth St Ste 4","Boston","MA","02116","828"
"Dunkin' Donuts","https://www.yellowpages.com/boston-ma/mip/dunkin-donuts-458067482?lid=458067482","(617) 248-1987","235 Washington St","Boston","MA","02108","829"
"Joshua's Deli","https://www.yellowpages.com/boston-ma/mip/joshuas-deli-492579291?lid=492579291","(617) 451-7779","44 Batterymarch St","Boston","MA","02110","830"
"B Good","https://www.yellowpages.com/boston-ma/mip/b-good-475266294?lid=475266294","(617) 357-7192","84 Summer St","Boston","MA","02110","831"
"Blue Glass Cafe","https://www.yellowpages.com/boston-ma/mip/blue-glass-cafe-470698151?lid=470698151","(617) 275-0250","200 Clarendon St","Boston","MA","02116","832"
"Rome Pizza","https://www.yellowpages.com/boston-ma/mip/rome-pizza-10100414?lid=10100414","(617) 695-1640","416 Tremont St","Boston","MA","02116","833"
"Starbucks Coffee","https://www.yellowpages.com/boston-ma/mip/starbucks-coffee-11024629?lid=11024629","(617) 536-7177","443 Boylston St","Boston","MA","02116","834"
"The Upper Crust","https://www.yellowpages.com/boston-ma/mip/the-upper-crust-17900325?lid=17900325","(617) 927-0090","683 Tremont St","Boston","MA","02118","835"
"Starbucks Coffee","https://www.yellowpages.com/boston-ma/mip/starbucks-coffee-10547656?lid=10547656","(617) 426-1763","143 Stuart St","Boston","MA","02116","836"
"Newsfeed Cafe","https://www.yellowpages.com/boston-ma/mip/newsfeed-cafe-530243335?lid=530243335","(857) 317-3103","700 Boylston St","Boston","MA","02116","837"
"Dunkin' Donuts","https://www.yellowpages.com/boston-ma/mip/dunkin-donuts-10363439?lid=10363439","(617) 742-6682","1 Congress St Ste 5","Boston","MA","02114","838"
"Dunkin' Donuts","https://www.yellowpages.com/boston-ma/mip/dunkin-donuts-15542255?lid=15542255","(617) 536-3521","800 Boylston St","Boston","MA","02199","839"
"Boston News Café","https://www.yellowpages.com/boston-ma/mip/boston-news-caf-482445386?lid=482445386","(617) 227-1102","28 State St","Boston","MA","02109","840"
"Vapiano","https://www.yellowpages.com/boston-ma/mip/vapiano-456832890?lid=456832890","(857) 445-0236","191 Stuart St","Boston","MA","02116","841"
"Kashmir","https://www.yellowpages.com/boston-ma/mip/kashmir-6391628?lid=6391628","(617) 536-1695","279 Newbury St","Boston","MA","02116","842"
"Lucca","https://www.yellowpages.com/boston-ma/mip/lucca-1746608?lid=1001899656673","(617) 765-4744","226 Hanover St","Boston","MA","02113","843"
"Maggiano's Little Italy","https://www.yellowpages.com/boston-ma/mip/maggianos-little-italy-8939663?lid=8939663","(617) 542-3456","4 Columbus Ave","Boston","MA","02116","844"
"Fleming's Prime Steakhouse & Wine Bar","https://www.yellowpages.com/boston-ma/mip/flemings-prime-steakhouse-wine-bar-3097695?lid=3097695","(617) 292-0808","217 Stuart St","Boston","MA","02116","845"
"Lucky's Lounge","https://www.yellowpages.com/boston-ma/mip/luckys-lounge-1073353?lid=1001876483963","(617) 229-7982","355 Congress St","Boston","MA","02210","846"
"75 Chestnut","https://www.yellowpages.com/boston-ma/mip/75-chestnut-3247562?lid=3247562","(617) 227-2175","75 Chestnut St Ste 1","Boston","MA","02108","847"
"An Tain","https://www.yellowpages.com/boston-ma/mip/an-tain-9084232?lid=9084232","(617) 426-1870","31 India St","Boston","MA","02110","848"
"Bertucci's","https://www.yellowpages.com/boston-ma/mip/bertuccis-464718252?lid=464718252","(617) 247-6161","43 Stanhope St","Boston","MA","02116","849"
"Taranta","https://www.yellowpages.com/boston-ma/mip/taranta-467894142?lid=467894142","(617) 720-0052","210 Hanover St","Boston","MA","02113","850"
"Sonsie","https://www.yellowpages.com/boston-ma/mip/sonsie-2911205?lid=2911205","(617) 351-2500","327 Newbury St","Boston","MA","02115","851"
"House of Siam","https://www.yellowpages.com/boston-ma/mip/house-of-siam-10859302?lid=10859302","(617) 267-1755","542 Columbus Ave","Boston","MA","02118","852"
"Teriyaki House","https://www.yellowpages.com/boston-ma/mip/teriyaki-house-13179615?lid=1001876492645","(617) 208-4792","1110 Boylston St","Boston","MA","02215","853"
"The Cheesecake Factory","https://www.yellowpages.com/boston-ma/mip/the-cheesecake-factory-3692677?lid=3692677","(617) 399-7777","115 Huntington Ave","Boston","MA","02199","854"
"Piattini","https://www.yellowpages.com/boston-ma/mip/piattini-4270070?lid=4270070","(617) 536-2020","226 Newbury St","Boston","MA","02116","855"
"Billy Tse Restaurant","https://www.yellowpages.com/boston-ma/mip/billy-tse-restaurant-5155492?lid=5155492","(617) 227-9990","240 Commercial St","Boston","MA","02109","856"
"Coda Kitchen & Bar","https://www.yellowpages.com/boston-ma/mip/coda-kitchen-bar-13308936?lid=13308936","(617) 536-2632","329 Columbus Ave","Boston","MA","02116","857"
"Nebo","https://www.yellowpages.com/boston-ma/mip/nebo-8997239?lid=8997239","(617) 723-6326","90 N Washington St","Boston","MA","02114","858"
"Perkins Restaurant & Bakery","https://www.yellowpages.com/boston-ma/mip/perkins-restaurant-bakery-467304313?lid=467304313","(617) 406-3400","55 Court St Ste 200","Boston","MA","02108","859"
"The Kinsale","https://www.yellowpages.com/boston-ma/mip/the-kinsale-474265736?lid=474265736","(617) 742-5577","2 Center Plz","Boston","MA","02108","860"
"Perkins Restaurant & Bakery","https://www.yellowpages.com/boston-ma/mip/perkins-restaurant-bakery-475488267?lid=475488267","(877) 659-6066","225 Franklin St","Boston","MA","02110","861"
"Sensing Restaurant","https://www.yellowpages.com/boston-ma/mip/sensing-restaurant-22709069?lid=22709069","(617) 994-9001","5 Battery St","Boston","MA","02109","862"
"Metropolis Cafe","https://www.yellowpages.com/boston-ma/mip/metropolis-cafe-13989115?lid=13989115","(617) 247-2931","584 Tremont St","Boston","MA","02118","863"
"Ristorante Fiore","https://www.yellowpages.com/boston-ma/mip/ristorante-fiore-4099678?lid=4099678","(617) 371-1176","250 Hanover St","Boston","MA","02113","864"
"29 Newbury Street Restaurant","https://www.yellowpages.com/boston-ma/mip/29-newbury-street-restaurant-464981995?lid=464981995","(617) 536-0290","29 Newbury St","Boston","MA","02116","865"
"Coppa","https://www.yellowpages.com/boston-ma/mip/coppa-451379435?lid=451379435","(617) 391-0902","253 Shawmut Ave","Boston","MA","02118","866"
"House of Siam on Tremont","https://www.yellowpages.com/boston-ma/mip/house-of-siam-on-tremont-19724177?lid=19724177","(617) 267-7426","592 Tremont St","Boston","MA","02118","867"
"Al Dente Restaurant","https://www.yellowpages.com/boston-ma/mip/al-dente-restaurant-10421598?lid=10421598","(617) 523-0990","109 Salem St","Boston","MA","02113","868"
"Artu","https://www.yellowpages.com/boston-ma/mip/artu-4516687?lid=4516687","(617) 742-4336","6 Prince St","Boston","MA","02113","869"
"Addis Red Sea Ethiopian Restaurant","https://www.yellowpages.com/boston-ma/mip/addis-red-sea-ethiopian-restaurant-12580301?lid=12580301","(617) 426-8727","544 Tremont St","Boston","MA","02116","870"
